LON,LAT,NUMBER,STREET,UNIT,CITY,DISTRICT,REGION,POSTCODE,ID,HASH
8.3258326,45.2354185,2,VIA ERCOLE MINELLA,,TRICERRO,,,,092A4055-EAA0-2A08-E054-0003BA0F36E6,16c1094072af976d
8.0256461,45.3080995,58,VIA ROMA,,CIGLIANO,,,,092A4091-EF0A-2A08-E054-0003BA0F36E6,f22f76fdfc9a37ad
8.0288076,45.305327,35,VIA ROMA,,CIGLIANO,,,,092A4091-EDCA-2A08-E054-0003BA0F36E6,52ed53d57018ba53
7.3044755,45.0544502,132,VIA CAVOUR,,COAZZE,,,,092A4055-B4EA-2A08-E054-0003BA0F36E6,3eb9faa5478ad99f
7.6556222,44.6520523,123,VIA TORINO,,SAVIGLIANO,,,,092A4056-75AB-2A08-E054-0003BA0F36E6,9c64baddd0ac3bf6
7.6557848,44.6466528,30,PIAZZA SANTORRE DI SANTAROSA,,SAVIGLIANO,,,,092A4056-6B2E-2A08-E054-0003BA0F36E6,03a857e79631bf5a
7.6552538,44.6456202,14,VIA LUIGI MIRETTI,,SAVIGLIANO,,,,092A4056-6B74-2A08-E054-0003BA0F36E6,56e1816817b6689e
7.2803061,44.7510658,439,VIA CAVE,,BAGNOLO PIEMONTE,,,,092A4092-063E-2A08-E054-0003BA0F36E6,4f6b1d2bb07ccb64
8.83843,44.7658902,142,STRADA di CASSANO,,NOVI LIGURE,,,,092A4083-AA99-2A08-E054-0003BA0F36E6,df8abbcd7aebbef3
8.0355861,44.6857185,18,VIA RENATO VUILLERMIN,,ALBA,,,,092A4044-80B7-2A08-E054-0003BA0F36E6,da8b181953210f2b
8.791557,44.7646125,65,VIA FELICE CAVALLOTTI,,NOVI LIGURE,,,,092A4083-7961-2A08-E054-0003BA0F36E6,756ff415077d4e83
7.6753178,44.9120964,18,VIA SPERANZA,,CARIGNANO,,,,092A4095-0640-2A08-E054-0003BA0F36E6,3a5621a5e2da7335
8.5017276,44.662475,65,VIA ACQUI,,VISONE,,,,092A4093-F8F9-2A08-E054-0003BA0F36E6,3928f9018332bc4a
8.4361565,45.8187792,23,VIA ALDO MORO,,ARMENO,,,,092A4079-8FD7-2A08-E054-0003BA0F36E6,f003c740f38d0d49
7.8324719,45.002553,42,VIA TEOFILO ROSSI CONTE DI MONTELERA,,CHIERI,,,,092A4055-EC44-2A08-E054-0003BA0F36E6,250494861e0bbf45
8.0473669,44.3222528,7,CASE SPARSE GERBIOLI,,BAGNASCO,,,,092A4044-86CA-2A08-E054-0003BA0F36E6,cd4041cbe4df2de9
8.4757806,44.6066649,142,FRAZIONE CIGLIONE,,PONZONE,,,,0AE0F23C-7998-464F-E054-0003BA0F36E6,054b6c51b328608f
7.6980005,44.8407276,15,VIA MURINA,,SAN BERNARDO,,,,092A4092-32F3-2A08-E054-0003BA0F36E6,296253a038150892
7.7187997,44.8465352,1,PIAZZA ALESSANDRO MANZONI,,CARMAGNOLA,,,,092A4092-368B-2A08-E054-0003BA0F36E6,4d2652de72e25247
7.8376732,45.1781859,19,VIA VOLPIANO,,BRANDIZZO,,,,092A4080-FEE8-2A08-E054-0003BA0F36E6,ec80d8ded1d811d6
8.0434931,44.6959937,13,STRADA SERRE,,ALBA,,,,092A4044-797D-2A08-E054-0003BA0F36E6,5839d1db94f0822c
8.0196874,44.663185,37,LOCALITA' SANTA ROSALIA,,ALBA,,,,092A4044-7AEF-2A08-E054-0003BA0F36E6,6480ee2d0c9f81f4
7.7184256,44.8460358,2,VIA SAN GIACOMO,,CARMAGNOLA,,,,092A4092-6F70-2A08-E054-0003BA0F36E6,17604f89313c24be
7.4717706,44.3942587,9,VIA BEPPE FENOGLIO,,SAN ROCCO,,,,092A4044-2BAD-2A08-E054-0003BA0F36E6,38cb5ba1db8268e0
8.4511498,44.6831738,433,VIA SAN DEFENDENTE,,ACQUI TERME,,,,092A4093-C72B-2A08-E054-0003BA0F36E6,16953cdd3eef0314
7.4879705,44.4082127,6,VIA SAN DEFENDENTE,,SAN ROCCO,,,,092A4044-3611-2A08-E054-0003BA0F36E6,5d5336fc25f9b910
8.5329214,44.7536614,53,STRADA MOGLIA,,CASSINE,,,,F95D137D-B17F-2F81-E044-0003BA0F36E6,f6157249adccac02
8.7917476,44.7613585,13,VIA GIUSEPPE GARIBALDI,,NOVI LIGURE,,,,092A4084-39C3-2A08-E054-0003BA0F36E6,494cd00434195251
8.7892453,44.7671199,107,VIALE della RIMEMBRANZA,,NOVI LIGURE,,,,092A4084-5868-2A08-E054-0003BA0F36E6,09d2e688a7f12e39
7.8324688,45.0126756,2,VIA ANGELO MENZIO,,CHIERI,,,,092A4056-4F7C-2A08-E054-0003BA0F36E6,e648f04e40e1a51d
8.183419,44.8972582,14,VIA PIETRO PANIATI,,ASTI,,,,092A4056-EB85-2A08-E054-0003BA0F36E6,2ae7f02c348b806a
8.2569205,44.8655866,85,FRAZIONE MONTEMARZO,,ASTI,,,,092A4056-E73E-2A08-E054-0003BA0F36E6,cb9fc236e590ea62
8.2220651,44.8965828,15,VIA TEVERE,,ASTI,,,,092A4056-E29D-2A08-E054-0003BA0F36E6,e9dd47b138ba6178
8.2218756,44.9012716,35,VIA ALESSANDRO LAMARMORA,,ASTI,,,,092A4056-D8E8-2A08-E054-0003BA0F36E6,f39564f5be0e8205
8.2135583,44.8995268,43,CORSO GALILEO FERRARIS,,ASTI,,,,092A4056-D2C6-2A08-E054-0003BA0F36E6,6d0a99cbad6fb6ee
8.1165591,44.9082112,1,FRAZIONE VALLEANDONA,,ASTI,,,,092A4056-C538-2A08-E054-0003BA0F36E6,6414699792ed88f0
7.8273196,45.16938,1,STRADA BRAIDA,,BRANDIZZO,,,,092A404C-9702-2A08-E054-0003BA0F36E6,d69c1f4bd47c712d
7.6919685,45.3408564,36,CORSO VITTORIO EMANUELE,,OGLIANICO,,,,092A404C-6228-2A08-E054-0003BA0F36E6,f34fd6d73d5dd7f3
8.1174152,45.3103623,22,VICOLO della STAZIONE,,BIANZE',,,,092A4048-1E07-2A08-E054-0003BA0F36E6,cb3d9bc8ac2c9b3a
7.47664,45.0245558,2,VIA MONTE ROSA,,BRUINO,,,,092A404D-F971-2A08-E054-0003BA0F36E6,62eba116d95c333e
8.8033628,44.7622838,67,VIA CASTELDRAGONE,,NOVI LIGURE,,,,092A4084-A151-2A08-E054-0003BA0F36E6,5588a338424a89c3
7.4755736,44.3977036,11,VIA VALLE GRANA,,SAN ROCCO,,,,092A4044-2E0A-2A08-E054-0003BA0F36E6,0d0f5ae4ff9aec38
8.7855722,44.759371,6,VIA NICOLO' GIRARDENGO,,NOVI LIGURE,,,,092A4084-CA78-2A08-E054-0003BA0F36E6,03513ff0891aec4f
8.7967331,44.7628033,5,VIA UGO FOSCOLO,,NOVI LIGURE,,,,092A4084-D630-2A08-E054-0003BA0F36E6,f106f5f5ba8f5b30
8.8044153,44.7557994,14,STRADA della TUARA PRIVATA B,,NOVI LIGURE,,,,092A4084-261D-2A08-E054-0003BA0F36E6,53fa823a63f3ef43
8.8097958,44.7522436,1,VIALE ARTIGIANATO,,NOVI LIGURE,,,,092A4086-5B68-2A08-E054-0003BA0F36E6,472fc8f436cbaa4d
8.7911672,44.7592644,8,PIAZZA XX SETTEMBRE,,NOVI LIGURE,,,,092A4086-7DE1-2A08-E054-0003BA0F36E6,f7bf183e4ce2ae06
8.8050502,44.755562,1,STRADA della TUARA PRIVATA B,,NOVI LIGURE,,,,092A4086-1E0F-2A08-E054-0003BA0F36E6,7d4bf1f9c129a141
8.0314765,44.68698,16,VIA CADORNA,,ALBA,,,,092A4044-7D33-2A08-E054-0003BA0F36E6,5e9811cfd34c6aa6
8.0314765,44.68698,18,VIA CADORNA,,ALBA,,,,092A4044-7D38-2A08-E054-0003BA0F36E6,e45e6c99d1c32fc1
7.8550146,45.2334465,3,VIA della PARROCCHIA,,MONTANARO,,,,092A404B-129C-2A08-E054-0003BA0F36E6,abf360b6dd4b6f6a
8.4374814,45.5766903,5,CORSO ITALIA,,SIZZANO,,,,092A4055-F144-2A08-E054-0003BA0F36E6,40694d6c397aed4c
7.7643117,45.2696504,2,VIA GALIMBERTI,,BOSCONERO,,,,092A404B-DB0A-2A08-E054-0003BA0F36E6,c6e8ca9525f720b8
7.4588745,44.9811172,25,VIA PALMIRO TOGLIATTI,,PIOSSASCO,,,,092A4083-0477-2A08-E054-0003BA0F36E6,8df67543d53f5858
7.78971,45.229348,5,VIA PIACENZA,,SAN BENIGNO CANAVESE,,,,1FF24A6A-9454-5964-E054-0003BA0F36E6,fb0603f8ea8b52bf
8.4471279,44.6850089,489,VIA SAN DEFENDENTE,,ACQUI TERME,,,,092A4095-0ADC-2A08-E054-0003BA0F36E6,3e4f87ff866993f0
8.4383688,45.5750655,32,VIA ROMA,,SIZZANO,,,,092A4055-F194-2A08-E054-0003BA0F36E6,8403080f9c4ace19
7.6688495,45.0074828,19,VIA PESCHIERA,,MONCALIERI,,,,092A4074-B00C-2A08-E054-0003BA0F36E6,175c3798930e7739
8.5704682,44.8455012,18,VIA ADDIS ABEBA,,CASTELLAZZO BORMIDA,,,,DF1B872B-AFC8-7325-E044-0003BA0F36E6,9e9cdccd0489c871
8.572312,44.8451435,141,SPALTO MONTEBELLO,,CASTELLAZZO BORMIDA,,,,DF1B872B-B04A-7325-E044-0003BA0F36E6,00a7278a7f47826b
8.6481359,44.6401536,33,PIAZZA GIUSEPPE GARIBALDI,,OVADA,,,,092A4096-DC8B-2A08-E054-0003BA0F36E6,59cbb66f0151f669
6.7467975,44.9383036,9,VIA RIO SECCO,,CLAVIERE,,,,092A404C-2B3C-2A08-E054-0003BA0F36E6,e0ab1a592399b697
7.4012621,44.8316965,106,VIA MACELLO,,CAVOUR,,,,092A404C-261E-2A08-E054-0003BA0F36E6,b71feaee8f538b9e
7.5819413,45.0645436,20,VIA GIOVANNI GIOLITTI,,GRUGLIASCO,,,,092A404C-1D81-2A08-E054-0003BA0F36E6,4efc5c680230df69
7.9923757,45.1598926,1,VIA CAPPELLETTA,,LAURIANO,,,,092A404C-18C7-2A08-E054-0003BA0F36E6,6481d698fe6edd2a
7.4002352,45.2995701,34,VIA TORINO,,CERES,,,,092A404C-11F6-2A08-E054-0003BA0F36E6,5dc5d9696f85c533
7.8627795,45.5132637,35,VIA ANDRATE,,BORGOFRANCO D'IVREA,,,,092A404C-0F8F-2A08-E054-0003BA0F36E6,0724fa5b41ab9417
7.6365905,44.8417887,8,VIA ORTENSIA,,LOMBRIASCO,,,,092A404B-FE78-2A08-E054-0003BA0F36E6,99dd4de5c4113fe7
7.4613465,45.4132694,26,VIA NUSIGLIE',,LOCANA,,,,092A404B-F94B-2A08-E054-0003BA0F36E6,d7ef5e21a7dd8442
7.8996514,45.4970043,22,VIA MONTALTO DORA,,CHIAVERANO,,,,092A404B-F2AC-2A08-E054-0003BA0F36E6,08ad1f2d5ceb3a2d
6.7943726,44.9499901,27,VIALE SENATORE ALFREDO BOUVIER,,CESANA TORINESE,,,,092A404D-130D-2A08-E054-0003BA0F36E6,97be88913df28ece
7.5047731,44.858503,74,VIA UMBERTO I,,CERCENASCO,,,,092A404D-EAD0-2A08-E054-0003BA0F36E6,3369b22cc7e10080
7.8171354,45.0479897,60,VIA CHIERI,,BALDISSERO TORINESE,,,,092A404D-E850-2A08-E054-0003BA0F36E6,54bc82bb3f369b7f
7.6062557,45.3194633,1,VIA della LIBERTA',,LEVONE,,,,092A404D-E53F-2A08-E054-0003BA0F36E6,46bdd879dc0f7773
7.3371548,44.8788973,34,VIA GIACOMO PUCCINI,,PINEROLO,,,,092A404D-DE96-2A08-E054-0003BA0F36E6,650beeac817fc1c7
7.3131252,45.1179329,5,VIA delle MURA,,CONDOVE,,,,092A404D-D6E4-2A08-E054-0003BA0F36E6,2f740e790369920d
7.6001256,44.9596302,2 BIS,PIAZZA RICCARDO SELLA,,CANDIOLO,,,,20568481-02AE-3087-E054-0003BA0F36E6,3782d6af4eb56d68
7.8522042,45.2344355,7,VIA NICOLO' FROLA,,MONTANARO,,,,1FF24A6A-9189-5964-E054-0003BA0F36E6,20003d3b159ac195
7.3341483,44.8117875,19,VIA DANIELA,,CAMPIGLIONE-FENILE,,,,092A404D-C87A-2A08-E054-0003BA0F36E6,f34b02daea7338f1
7.0217458,45.1227573,55,VIA EUROPA,,GRAVERE,,,,092A404D-B8A3-2A08-E054-0003BA0F36E6,0e75f77aaa3ff51a
7.3531147,44.8417743,12,VIA SALUZZO,,OSASCO,,,,092A404D-B4E3-2A08-E054-0003BA0F36E6,78f414ffe0a25981
7.3988574,45.3055277,2,FRAZIONE VERNETTO,,CERES,,,,092A404D-B218-2A08-E054-0003BA0F36E6,23849d6cbb903a39
7.4750451,44.9899177,38,VIA TORINO,,PIOSSASCO,,,,092A404D-967A-2A08-E054-0003BA0F36E6,8e5512f41472fdbe
7.2861641,44.8289601,4,STRADA CUCCIA,,SAN MICHELE,,,,092A404D-90AD-2A08-E054-0003BA0F36E6,9d1848bf777d7359
7.7431197,45.3500407,11,VIA XX SETTEMBRE,,OZEGNA,,,,092A404D-8E64-2A08-E054-0003BA0F36E6,14c51bbbc12d7c56
7.7748587,45.0471434,5,VIA delle ORTENSIE,,PINO TORINESE,,,,092A404D-8F9A-2A08-E054-0003BA0F36E6,a3176224113acacb
7.3479562,45.1192614,2,VIA RIO CASTELLO,,NOVARETTO,,,,092A404D-8D65-2A08-E054-0003BA0F36E6,56e8eb6e5e1b6273
7.9570883,45.4362539,4,STRADA CUGNOLIO,,ALBIANO D'IVREA,,,,092A407C-FDE3-2A08-E054-0003BA0F36E6,169e98c51869e37f
7.6457554,44.9940369,2,VIA CAMILLO BENSO CAVOUR,,NICHELINO,,,,092A404D-EA5D-2A08-E054-0003BA0F36E6,8e1731bef214fd6c
6.8266897,45.0376946,1,VIA PELLOUSIERE,,OULX,,,,092A404C-2C90-2A08-E054-0003BA0F36E6,1ef6ba2289af0b5f
7.2291088,44.9420693,6,VIA CADUTI PER LA LIBERTA',,PINASCA,,,,092A404C-F404-2A08-E054-0003BA0F36E6,2f77934a3133702a
7.5984105,45.4202546,3,VIA VALACCHIA,,PONT-CANAVESE,,,,092A404B-EF9B-2A08-E054-0003BA0F36E6,70d4abad5c504fb9
7.9421904,45.4707852,7,VIA ROMA,,BOLLENGO,,,,092A404B-ED66-2A08-E054-0003BA0F36E6,026658935f7edf19
7.4864977,45.1053613,112,CORSO SUSA,,CASELETTE,,,,092A404B-ECA8-2A08-E054-0003BA0F36E6,936e7ba02a62638d
7.4367167,45.4267249,37,BORGATA RONCORE,,LOCANA,,,,092A404B-EA4B-2A08-E054-0003BA0F36E6,d32e57cef177ece0
7.9684859,45.4630461,26,STRADA PALAZZO,,BOLLENGO,,,,092A404B-E0C8-2A08-E054-0003BA0F36E6,1fa5f7bb82612408
7.5891086,44.8369134,9,VIA VIRLE,,PANCALIERI,,,,092A404B-CC0F-2A08-E054-0003BA0F36E6,e0007f7c68a5e8b6
8.006864,45.4478141,27,VIA FLECCHIA,,PIVERONE,,,,092A404B-C5A7-2A08-E054-0003BA0F36E6,8b62c4b31b02401f
7.9421584,45.4693357,32,VIA STATALE,,BOLLENGO,,,,092A404B-B8B9-2A08-E054-0003BA0F36E6,214dd2682b279a0c
7.7741095,45.0416667,8,VIA BISCARETTI,,PINO TORINESE,,,,092A404B-92CB-2A08-E054-0003BA0F36E6,c0a67b65c64a6b29
7.461266,45.4168778,7,VIA ROMA,,LOCANA,,,,092A404B-8F60-2A08-E054-0003BA0F36E6,49a06d060ee88ad8
7.5233686,45.2169023,7,VIA CAFASSE,,FIANO,,,,092A404B-8867-2A08-E054-0003BA0F36E6,86c77f8a357144d6
7.8249845,45.1286773,4,VICOLO GONELLA,,GASSINO TORINESE,,,,092A404B-893E-2A08-E054-0003BA0F36E6,b83dd4225f4158c1
7.8180264,45.0447673,68,VIA CHIERI,,BALDISSERO TORINESE,,,,092A404B-81CD-2A08-E054-0003BA0F36E6,bbc030038b2bb302
7.6037108,45.3752814,1,FRAZIONE FERRERO,,CANISCHIO,,,,092A404B-7D3B-2A08-E054-0003BA0F36E6,3e08346a6f42579e
7.5322365,45.313045,24,VIA UMBERTO COSMO,,CORIO,,,,092A404B-6AA3-2A08-E054-0003BA0F36E6,1a7767c28bf554ca
7.5805549,45.0667543,26,VIA GENERALE ANTONIO CANTORE,,GRUGLIASCO,,,,092A404B-668E-2A08-E054-0003BA0F36E6,930ba5eaa12e3ff1
7.0472407,45.1463442,24,FRAZIONE TRINITA',,PIETRASTRETTA,,,,092A404D-43D2-2A08-E054-0003BA0F36E6,cd11208f3e4b939d
7.272673,44.8373763,37,STRADA COMBA,,BRICHERASIO,,,,092A404D-4080-2A08-E054-0003BA0F36E6,f87172479ee44874
8.3689471,45.2354083,5,VIA CASTELLO,,COSTANZANA,,,,092A4048-3473-2A08-E054-0003BA0F36E6,b040bb8e763a95ba
7.5733417,45.0665789,2,VIA GIACOMO PUCCINI,,GRUGLIASCO,,,,092A404B-B1A2-2A08-E054-0003BA0F36E6,c1450d0fac1a2212
7.023998,45.1214325,1,VIA BUFFA,,GRAVERE,,,,092A404B-ACE3-2A08-E054-0003BA0F36E6,b0227f026b53df57
7.8667231,45.0384601,10,VIA CAVOUR,,ANDEZENO,,,,092A404B-A766-2A08-E054-0003BA0F36E6,84611e231d2a753d
7.5270982,45.3058812,1,CASE PIAN GILI,,CORIO,,,,092A404D-19C0-2A08-E054-0003BA0F36E6,0ee24d3b33bba598
8.556067,45.8654135,5,VIA del CARRETTO,,MAGOGNINO,,,,092A4078-214C-2A08-E054-0003BA0F36E6,7518b21095e1c5d4
7.3048708,44.8256655,4,VIA CAVOUR,,BRICHERASIO,,,,092A404A-DCB4-2A08-E054-0003BA0F36E6,f52fb5c827c4c183
7.8479663,44.9159853,25,VIA PRALORMO,,POIRINO,,,,092A404C-E937-2A08-E054-0003BA0F36E6,4bd9f6605226c43b
8.6482902,44.672716,9,VIA ai PIAGGI,,ROCCA GRIMALDA,,,,092A409E-BEF1-2A08-E054-0003BA0F36E6,17a85fa3e1a8be71
7.8506234,45.0767235,14,TETTI GAFFOLO,,MONTALDO TORINESE,,,,092A404B-9780-2A08-E054-0003BA0F36E6,dc22e2a4b678ceed
7.1961023,44.9716417,7,BORGATA AIRA,,PEROSA ARGENTINA,,,,092A404B-94E2-2A08-E054-0003BA0F36E6,ec1f31bdf0e1e5e0
7.8495925,44.5383175,99,FRAZIONE SANTO STEFANO,,BENE VAGIENNA,,,,092A4048-06F1-2A08-E054-0003BA0F36E6,e9fba891c50c7ca9
7.4733022,45.0065254,2,VIA GIACOMO PUCCINI,,BRUINO,,,,092A404D-4D19-2A08-E054-0003BA0F36E6,4fc9d27c552344e2
7.6509225,45.1750072,26,STRADA AEROPORTO,,CASELLE TORINESE,,,,092A404B-29C1-2A08-E054-0003BA0F36E6,126921886c28e892
7.4460648,45.3029394,32,BORGATA TUGLIE,,MONASTERO DI LANZO,,,,092A404E-00D3-2A08-E054-0003BA0F36E6,9ab27396442bc024
8.1264101,45.3044185,14,VIA CAVALIER ANTONIO TERZAGO,,BIANZE',,,,092A4048-26F4-2A08-E054-0003BA0F36E6,1da7daf9feae5855
7.5242658,45.0954676,15,VIA ALESSANDRO CRUTO,,VECCHIO,,,,092A404A-EB05-2A08-E054-0003BA0F36E6,08ab28b1c945fd48
7.5310656,45.0913154,19,VIA VALLE,,TALLE,,,,092A404A-EBFA-2A08-E054-0003BA0F36E6,b210773fcd379b57
7.5742698,45.069039,13,VIA GIUSEPPE MAZZINI,,GRUGLIASCO,,,,092A404A-E579-2A08-E054-0003BA0F36E6,7181800f60427dcf
8.0280759,44.6986542,2 BIS,VIA VIVARO,,ALBA,,,,092A4082-25BB-2A08-E054-0003BA0F36E6,2901a2ee30af0c05
8.2721272,45.4808802,8,VIA SAN SEBASTIANO,,BURONZO,,,,092A4048-2AAF-2A08-E054-0003BA0F36E6,d759e5ea05fd45df
7.6714805,45.4131169,1,VIA CAMPI,,BORGIALLO,,,,092A404A-FAF5-2A08-E054-0003BA0F36E6,811e086399dd4aaf
8.1516372,45.9912215,21,VIA VITTORIO EMANUELE III,,PONTEGRANDE,,,,092A4075-988C-2A08-E054-0003BA0F36E6,3371472fe1f69e4f
7.7061276,45.1518321,24,VIA GUGLIELMO MARCONI,,MAPPANO,,,,092A4081-7C47-2A08-E054-0003BA0F36E6,aeb209318234aa45
7.6458484,45.3890343,19,VIA BOSDONIO,,CUORGNE',,,,092A404A-C062-2A08-E054-0003BA0F36E6,af530a733cc1e5f4
7.464974,45.0191875,23,VIA PINEROLO SUSA,,BRUINO,,,,092A404D-7F0F-2A08-E054-0003BA0F36E6,0ff2cda325e3783b
7.3327092,44.8096959,15,VIA DANIELA,,CAMPIGLIONE-FENILE,,,,092A404D-7F7D-2A08-E054-0003BA0F36E6,2619db00c5bf93ca
7.2200303,44.3132913,4,VIA TORRE,,AISONE,,,,092A4044-6DE3-2A08-E054-0003BA0F36E6,1564a3a07187d5e6
7.2822561,44.7760674,132,VIA OLMETTO,,OLMETTO,,,,092A4044-8A1C-2A08-E054-0003BA0F36E6,ad08ba6623ddc355
7.340403,44.767376,15,VIA CACHERANO,,SAN GRATO,,,,092A4044-8BF7-2A08-E054-0003BA0F36E6,0f38d5f163821d76
8.0910347,45.1984194,74,VIA FALDELLA,,CRESCENTINO,,,,092A4048-3824-2A08-E054-0003BA0F36E6,01977c87962e8b20
7.8892715,45.1902216,46,VIA TORINO,,CHIVASSO,,,,092A404A-B766-2A08-E054-0003BA0F36E6,99f64c0fd4d5a67e
7.6493555,45.3872036,4,VIA CAPPA,,CUORGNE',,,,092A404A-B784-2A08-E054-0003BA0F36E6,c654bf5f54f61b2f
7.3140061,44.7556014,2,VIA BARGE,,BAGNOLO PIEMONTE,,,,092A4044-942B-2A08-E054-0003BA0F36E6,74b06417e0bb0e35
7.2778956,44.7441787,45,VIA GARIGO,,VILLAR,,,,092A4044-97AF-2A08-E054-0003BA0F36E6,d34dd4e85cbe93bd
7.3490652,44.7298991,98,VIA SAN MARTINO,,BARGE,,,,092A4044-A100-2A08-E054-0003BA0F36E6,13cd1df6e3d4ef81
8.1004337,45.1979357,12,VIA AMERIGO VESPUCCI,,CRESCENTINO,,,,092A4048-3B8F-2A08-E054-0003BA0F36E6,218600944711ea7c
7.4679908,45.0192145,26,VICOLO SAN MARTINO,,BRUINO,,,,092A404D-4B2F-2A08-E054-0003BA0F36E6,e3a65b820a95f7b5
7.4666195,45.0222972,33,VIA SANGANO,,BRUINO,,,,092A404D-49F9-2A08-E054-0003BA0F36E6,38defcb6d80fcf32
7.3054147,45.1163425,22,VIA ROMA,,CONDOVE,,,,092A404D-0016-2A08-E054-0003BA0F36E6,2dc4e7a19b04622e
7.1932769,45.1443828,1,VIA PISSAGLIO,,BRUZOLO,,,,092A404D-0133-2A08-E054-0003BA0F36E6,3ca3bfeed111dfc9
7.235747,45.1222095,33,VIA AUGUSTO ABEGG,,BORGONE SUSA,,,,092A404D-1C40-2A08-E054-0003BA0F36E6,1dbd65c4ebb99ce1
7.2262096,44.9330853,48,VIA PROVINCIALE,,INVERSO PINASCA,,,,092A404C-7191-2A08-E054-0003BA0F36E6,94eeed8aabf6379a
7.3886613,44.8147753,65,VIA GERBIDI,,CAVOUR,,,,092A404C-691C-2A08-E054-0003BA0F36E6,28aa3b89fc6550a9
7.5702466,45.0662611,48,VIA PIETRO CROSETTO,,GRUGLIASCO,,,,092A404C-56BB-2A08-E054-0003BA0F36E6,bfd4204a944a8f0b
7.5681616,45.0692911,43,VIA CATANIA,,COLLEGNO,,,,092A404C-55B2-2A08-E054-0003BA0F36E6,d44d3f02dd5144cb
7.1920846,44.9628012,26,VIA GENEBREA,,PEROSA ARGENTINA,,,,092A404C-4F31-2A08-E054-0003BA0F36E6,4674e24bdc4ff549
8.1062977,45.0043177,80,VIA MONDO,,MONTECHIARO D'ASTI,,,,092A4049-DCC4-2A08-E054-0003BA0F36E6,b0b937b31fa03010
7.9207338,45.1227541,4,STRADA MONGALLO,,CASE SPARSE,,,,092A404C-E865-2A08-E054-0003BA0F36E6,065ddc670c098aaf
7.1409173,45.1425025,36,VIA MASSIMO D'AZEGLIO,,BUSSOLENO,,,,092A404D-3CDE-2A08-E054-0003BA0F36E6,64ae217abcba0424
7.0087897,45.1364532,31,FRAZIONE SAN GIOVANNI,,GIAGLIONE,,,,092A404D-3AEF-2A08-E054-0003BA0F36E6,21d57e008f46ac22
8.0071293,45.4507373,28,STRADA SAN PIETRO,,PIVERONE,,,,092A404D-8220-2A08-E054-0003BA0F36E6,a307a549802612cc
7.8821106,45.1551712,44,STRADA OSSOLE,,CASTAGNETO PO,,,,092A404D-5737-2A08-E054-0003BA0F36E6,d7460c8fbdfe7c44
7.1637654,45.1424807,2,VIA VIII LUGLIO,,CHIANOCCO,,,,092A404D-57CD-2A08-E054-0003BA0F36E6,78b5908fb2e0594e
7.1958109,45.1422669,1,PIAZZA REGINA MARGHERITA,,BRUZOLO,,,,092A404C-DCC6-2A08-E054-0003BA0F36E6,f96f1e1c2a06a3d9
7.5779874,45.0714888,43,VIA CESARE BATTISTI,,COLLEGNO,,,,092A404C-D780-2A08-E054-0003BA0F36E6,492d4fddf8be13a1
7.5388308,45.1991925,15,ROTTA GOLF,,FIANO,,,,092A404C-D6D1-2A08-E054-0003BA0F36E6,c88166fac370710e
7.890338,45.3086878,8,VIA MORETTO,,CALUSO,,,,092A404C-CEC0-2A08-E054-0003BA0F36E6,f4888a97bf60d570
7.8774942,45.2800816,14,VIA MONTE NERO,,RODALLO,,,,092A404C-C9F7-2A08-E054-0003BA0F36E6,ca0d53329515f4e5
7.89843,45.3025371,81,VIA PRIMINO FRASSATI,,CALUSO,,,,092A404C-CA3D-2A08-E054-0003BA0F36E6,af746ea512877c50
7.5636401,45.0705576,25,VIA ISONZO,,COLLEGNO,,,,092A404C-C326-2A08-E054-0003BA0F36E6,6e6911da45181329
7.3312979,44.8858154,2,VICOLO SOCIETA' OPERAIA,,PINEROLO,,,,092A404C-B95D-2A08-E054-0003BA0F36E6,8a67db6b96863e51
7.331306,44.8865762,16,VIA del DUOMO,,PINEROLO,,,,092A404C-AEB8-2A08-E054-0003BA0F36E6,6e9f721fa02c3b2e
7.3378432,44.8859739,174,CORSO TORINO,,PINEROLO,,,,092A404C-AC74-2A08-E054-0003BA0F36E6,4e7c405b6a059250
7.4587105,44.3915444,74,VIA TORRETTE,,SAN ROCCO,,,,092A4044-38F0-2A08-E054-0003BA0F36E6,5dcb56371a245ea8
7.4512598,44.3905523,66,VIA CUNEO,,BERNEZZO,,,,092A4044-3AAD-2A08-E054-0003BA0F36E6,04762694f41c2588
6.9826818,45.1188241,10,VIA CAMILLO BENSO CAVOUR,,CHIOMONTE,,,,092A404D-3F04-2A08-E054-0003BA0F36E6,68d276678cf96a28
7.4274221,45.0832467,3,VIA CAPOLUOGO,,FERRIERA,,,,092A404C-AC88-2A08-E054-0003BA0F36E6,2bb16227f1cf6bec
7.3362713,44.885798,9,CORSO TORINO,,PINEROLO,,,,092A404C-A6A2-2A08-E054-0003BA0F36E6,bb07b17142866e33
7.4740792,45.0253318,18,VIA ROCCIAMELONE,,BRUINO,,,,092A404C-A3F0-2A08-E054-0003BA0F36E6,bd6d8ba01af27c06
7.3329706,44.8879239,1,VIA ARSENALE,,PINEROLO,,,,092A404C-A2BF-2A08-E054-0003BA0F36E6,186b17df7a0fee08
7.3330474,45.120683,31,VIA PAPA GIOVANNI XXIII,,CAPRIE,,,,092A404C-9E69-2A08-E054-0003BA0F36E6,bdc86381562ccfc0
7.1152306,44.9367173,2,VIA LUIGI FACTA,,PERRERO,,,,092A404C-9C7A-2A08-E054-0003BA0F36E6,870d28357bc35e1a
7.8237412,44.938959,4,VIA del BORDUAGLIO,,MAROCCHI,,,,092A404C-963F-2A08-E054-0003BA0F36E6,9626c3c0c2d4d8a1
7.4256079,45.1086202,20,BORGATA GRANGE,,MILANERE,,,,092A4082-8FA1-2A08-E054-0003BA0F36E6,2bb08ab92b925506
7.3926759,45.1273846,3,BORGATA SOFFIETTI BOLLE',,ALMESE,,,,092A4082-8FE7-2A08-E054-0003BA0F36E6,e9c42fa5ddac012a
7.9919714,44.794747,23,VIA MOMBIRONE,,CANALE,,,,092A4049-D41D-2A08-E054-0003BA0F36E6,28b4702b1b564222
8.1725495,44.7841352,5,STRADA SERRA,,COSTIGLIOLE D'ASTI,,,,092A4049-D80A-2A08-E054-0003BA0F36E6,d0649141884eefb9
8.0659906,44.6618357,58,FRAZIONE COMO,,ALBA,,,,092A4044-8409-2A08-E054-0003BA0F36E6,21ff7666ebd32193
7.8985785,45.3385938,2,VIA PIETRA BIANCA,,CANDIA CANAVESE,,,,1CA10FFA-513D-1D4B-E054-0003BA0F36E6,0dd60b4000b4f45e
7.8535942,45.2300566,31,VIA FILIPPO VISETTI,,MONTANARO,,,,092A404D-A011-2A08-E054-0003BA0F36E6,d1e4807d02581be6
7.8564713,45.2367377,13,VIA SIBILLA ALERAMO,,MONTANARO,,,,092A404D-6691-2A08-E054-0003BA0F36E6,39e9e03b2a623402
7.6000572,44.9589722,2,VIA ROMA,,CANDIOLO,,,,092A404C-E3E2-2A08-E054-0003BA0F36E6,31a531a1fa794107
7.537031,44.9301454,28,VIA FAUNASCO,,NONE,,,,092A404C-5931-2A08-E054-0003BA0F36E6,a87776fec81de0ea
7.8187608,45.269772,150,VIA PALESTRO,,FOGLIZZO,,,,092A407A-BEDE-2A08-E054-0003BA0F36E6,42595816b792dd4c
8.148611,45.990686,5,VIA VITTORIO EMANUELE III,,PONTEGRANDE,,,,092A4075-99E5-2A08-E054-0003BA0F36E6,83824616be8c28d5
8.556736,45.9562311,21,VIA MOTTE,,VIGNONE,,,,092A4079-4667-2A08-E054-0003BA0F36E6,6f190e0afbf19a44
7.4980279,44.8619839,39,VIA XX SETTEMBRE,,CERCENASCO,,,,092A404C-47E3-2A08-E054-0003BA0F36E6,5893c47770f05f67
7.4294091,44.9132052,153,VIA UMBERTO I,,PISCINA,,,,092A404C-44B9-2A08-E054-0003BA0F36E6,7a4cc8b08769d7e2
7.0534286,45.0338149,23,VIA RE UMBERTO I,,FENESTRELLE,,,,092A404C-423E-2A08-E054-0003BA0F36E6,5ca900eabe98da35
7.2299771,44.9403138,2,VIA PINEROLO,,DUBBIONE,,,,092A404C-3B36-2A08-E054-0003BA0F36E6,0ebe02a1f0053712
7.1130119,45.1186131,13,VIA ROMA,,MATTIE,,,,092A404D-1CA4-2A08-E054-0003BA0F36E6,8a095f15edc8124f
7.7125672,45.1881321,5,VIA DON GIACOMO OLIVERO,,LEINI',,,,E088C38E-6418-447F-E044-0003BA0F36E6,e29cb885e41f5c3a
7.7761303,44.9741516,15,VIA MARTIRI DELLA LIBERTA',,CAMBIANO,,,,092A404B-5586-2A08-E054-0003BA0F36E6,40c21fcd65b16bf3
7.561373,44.9028049,43,VIA TORINO,,CASTAGNOLE PIEMONTE,,,,092A404B-4C30-2A08-E054-0003BA0F36E6,8f805b3ca0602d59
7.8437623,44.9187559,35,VIA XX SETTEMBRE,,POIRINO,,,,092A404B-4721-2A08-E054-0003BA0F36E6,3f4fcadd55c81c34
7.5213038,45.0957128,1,VIA MODENA,,VECCHIO,,,,092A404B-33E9-2A08-E054-0003BA0F36E6,d59db179369194f3
7.5302647,45.0901349,14,VIA PIEMONTE,,TALLE,,,,092A404B-2EDA-2A08-E054-0003BA0F36E6,454be985bf1fc2c0
7.066556,45.1191051,7,VIA SUFFIS,,MEANA DI SUSA,,,,092A404B-2C46-2A08-E054-0003BA0F36E6,99ce10c15258ddf4
7.8509158,45.2368124,15,VIA CASTELFIDARDO,,MONTANARO,,,,092A404C-B408-2A08-E054-0003BA0F36E6,4e3579cb66b6e175
8.1149975,46.0604713,7,VIA COLONASCA,,ANTRONA SCHIERANCO,,,,092A4075-3F8B-2A08-E054-0003BA0F36E6,b14f4795f41529b9
7.7440281,45.3483089,1,VIA CAVOUR,,OZEGNA,,,,092A404B-2174-2A08-E054-0003BA0F36E6,5db0dfd04f192c0d
8.0164871,45.1472619,1,VIA COCCONATO,,BORGO SAN ROCCO,,,,092A404B-064E-2A08-E054-0003BA0F36E6,2f045c971fe95531
7.0565712,45.1244536,17,VIA CANTALUPO,,MEANA DI SUSA,,,,092A404B-00A9-2A08-E054-0003BA0F36E6,1accfa0440d39636
8.618547,44.6266539,58,STRADA REBBA,,OVADA,,,,092A4099-91E7-2A08-E054-0003BA0F36E6,ebece80b1022e284
7.1568088,45.1381603,35,STRADA TORINO,,BUSSOLENO,,,,092A404C-F990-2A08-E054-0003BA0F36E6,386b4451baa6f27c
8.644327,44.6392776,1,PIAZZA CAPPUCCINI,,OVADA,,,,092A409A-103B-2A08-E054-0003BA0F36E6,76239f0b3357609a
7.640313,44.9983876,1,VIA EXILLES,,NICHELINO,,,,092A404B-849D-2A08-E054-0003BA0F36E6,87ccde555ba11aa2
7.5375995,45.2614722,43,VIA CIRCONVALLAZIONE,,CENTRO,,,,092A404B-E28A-2A08-E054-0003BA0F36E6,54d6bbd5687d502f
7.7982356,45.4343103,52,VIA GIUSEPPE GIACOSA,,COLLERETTO GIACOSA,,,,238B44A7-B691-608B-E054-0003BA0F36E6,63ebb68478f2bbc0
7.5191212,45.3227952,3,CASE MERLA,,CORIO,,,,092A404D-9495-2A08-E054-0003BA0F36E6,506818951ed95803
7.8352713,44.9994219,2,VIA ANGELO BROFFERIO,,CHIERI,,,,092A4056-4A81-2A08-E054-0003BA0F36E6,f3370870633040b5
7.855796,45.2303353,48,VIA GIUSEPPE GARIBALDI,,MONTANARO,,,,092A404B-9410-2A08-E054-0003BA0F36E6,dcba39f93e50c52b
7.6207649,45.059321,2,VIA GIUSEPPE CASSINELLI,,GRUGLIASCO,,,,092A408B-0A46-2A08-E054-0003BA0F36E6,507848a23e29f0bb
8.1902244,44.8902221,7,PIAZZA PIETRO NENNI,,ASTI,,,,092A4056-E5CC-2A08-E054-0003BA0F36E6,bb40b35d3a6d286b
7.5204866,45.2730843,56,VIA TORINO,,BALANGERO,,,,092A404A-C0EE-2A08-E054-0003BA0F36E6,433e895db2abae75
7.0866584,45.1264741,22,BORGATA RODETTI,,MEANA DI SUSA,,,,092A404A-BF59-2A08-E054-0003BA0F36E6,df6070b69a5c692c
7.3800284,44.9853009,13,VIA DON FELICE POZZO,,CUMIANA,,,,092A404C-6C28-2A08-E054-0003BA0F36E6,5940b4e8a818910e
8.7972311,44.7650548,34,VIA ALESSANDRO MANZONI,,NOVI LIGURE,,,,092A408A-ECE6-2A08-E054-0003BA0F36E6,1ee733725b4599a6
8.8012983,44.7644093,11,VIA ZARA,,NOVI LIGURE,,,,092A408A-EC69-2A08-E054-0003BA0F36E6,9e088236a984eb1f
8.4729701,44.6899429,74,VIA VALLERANA,,ACQUI TERME,,,,092A4099-CCAC-2A08-E054-0003BA0F36E6,6e89d1f9dff1d071
8.6005547,44.620034,39,VIA RE UMBERTO I,,MOLARE,,,,092A409A-B49B-2A08-E054-0003BA0F36E6,229349950fe1b8ef
7.762014,45.3302774,2,STRADA FELETTO AGLIE',,CICONIO,,,,092A404E-1B3B-2A08-E054-0003BA0F36E6,9986dd608f097fcf
6.9282215,45.0974912,10,VICOLO SANT'ANTONIO,,EXILLES,,,,092A404E-11EA-2A08-E054-0003BA0F36E6,55d54d736a88f72e
7.3938566,44.8039964,9,VIA SAN MICHELE,,CAVOUR,,,,092A404D-EE7C-2A08-E054-0003BA0F36E6,8b215318e8c47bab
7.7806583,44.9677141,28,VIA LAME,,CAMBIANO,,,,092A404B-78E5-2A08-E054-0003BA0F36E6,cad5209a88caca72
7.2385944,44.8095161,14,VIA INVERSEGNI,,LUSERNA SAN GIOVANNI,,,,092A404B-689B-2A08-E054-0003BA0F36E6,a163045935d13281
7.0522804,45.034448,6,VIA PUY E PEQUEREL,,FENESTRELLE,,,,092A404B-61BB-2A08-E054-0003BA0F36E6,af9deb2c5722efb9
7.3551729,44.8138117,15,VIA GERBIDI,,CAVOUR,,,,092A404B-3C36-2A08-E054-0003BA0F36E6,f12f1864f7c64af7
7.6812594,45.3303006,3,VIA GIACINTA BERTETTI,,FAVRIA,,,,092A408D-94AF-2A08-E054-0003BA0F36E6,b9cfeb206f93d104
7.655285,44.6426318,23,VIALE del SOLE,,SAVIGLIANO,,,,092A4056-5DD7-2A08-E054-0003BA0F36E6,f90489fb204d45e4
7.6090509,45.2288791,2,VIA COSTANTINO NIGRA,,CIRIE',,,,C16A5F18-75DD-6EC1-E044-0003BA0F36E6,9732fbb3c4aa89d2
7.6072679,45.2348434,15,VIA CLEMENTE MACARIO,,CIRIE',,,,C16A5F18-779F-6EC1-E044-0003BA0F36E6,59267db02013b7df
7.3936522,44.981339,122,VIA CHISOLA,,CUMIANA,,,,092A404B-4929-2A08-E054-0003BA0F36E6,97cf2ef1fb9a8e26
8.7881661,44.7551133,19,SALITA alla BRICCHETTA,,NOVI LIGURE,,,,092A408B-9FEC-2A08-E054-0003BA0F36E6,f736df2f57d7beb5
7.5345573,44.9325667,29,VIA SANTORRE DI SANTAROSA,,NONE,,,,092A404C-14A8-2A08-E054-0003BA0F36E6,aabdd6168eb838b8
7.5479547,44.9309284,18,VIA dei SALICI,,NONE,,,,092A404B-FCA2-2A08-E054-0003BA0F36E6,3fd04abf54fec941
7.7796883,45.4903533,11,PIAZZA RICARDI,,MEUGLIANO,,,,092A404D-1E5C-2A08-E054-0003BA0F36E6,e5b6fcd9b81d4b0d
7.3951347,45.0623273,42,VIA delle MADDALENE,,AVIGLIANA,,,,092A4078-8943-2A08-E054-0003BA0F36E6,f9796cbb72722f67
7.4007653,45.0798248,6,PIAZZA del POPOLO,,AVIGLIANA,,,,092A4078-8CDB-2A08-E054-0003BA0F36E6,ae8aab0d1e5d4326
7.4063038,45.1004083,18,VIA dei SUPPO,,AVIGLIANA,,,,092A4078-91E5-2A08-E054-0003BA0F36E6,961ceb7d89daf485
7.5963234,45.0725214,6,VIA MARIA MONTESSORI,,COLLEGNO,,,,092A4079-3AAF-2A08-E054-0003BA0F36E6,efe1e0088de2ce11
7.5312434,45.0096845,8,STRADA RIVALTA,,ORBASSANO,,,,092A4077-E029-2A08-E054-0003BA0F36E6,86e08b264ad0171e
7.5855351,45.071164,3,VIA PALERMO,,COLLEGNO,,,,092A4079-375D-2A08-E054-0003BA0F36E6,6606db98090688c0
7.9877736,45.1683495,9,VIA CESARE TESTORE,,LAURIANO,,,,092A4049-DA85-2A08-E054-0003BA0F36E6,efbdd65e35b191b3
7.8471605,44.9161077,14,VIA TERNAVASSO,,POIRINO,,,,092A404C-DAC8-2A08-E054-0003BA0F36E6,3b69e425cb33eaa7
7.4872262,44.9166415,55,VIA ROMA,,AIRASCA,,,,092A4080-4034-2A08-E054-0003BA0F36E6,7985e6b0f5140142
7.0660733,45.1185748,17,VIA DURANTE,,MEANA DI SUSA,,,,092A404C-8FE6-2A08-E054-0003BA0F36E6,00691eaaf73ffa35
7.3037074,45.1184505,40,VIA IV NOVEMBRE,,CONDOVE,,,,092A404C-6A11-2A08-E054-0003BA0F36E6,a6503659514bff2a
7.2628572,44.8174451,55,VIA ai VOLA,,LUSERNA SAN GIOVANNI,,,,092A404C-5152-2A08-E054-0003BA0F36E6,a8dbc8de7e2a6840
7.5020779,45.2725292,22,VIA dell' EREMO,,LANZO TORINESE,,,,092A404C-17DC-2A08-E054-0003BA0F36E6,99038cd0eef8675a
7.3035545,45.1144695,9,VIA MILITE IGNOTO,,CONDOVE,,,,092A404B-F059-2A08-E054-0003BA0F36E6,cfc563d04d75eef6
7.4770993,45.1048537,34,VIA ALMESE,,CASELETTE,,,,092A404B-F07C-2A08-E054-0003BA0F36E6,f5ad71c470b18829
7.67766,45.4193275,69,VIA ADOLFO GHELLA,,COLLERETTO CASTELNUOVO,,,,092A404B-EE56-2A08-E054-0003BA0F36E6,8808df71052f6f69
7.6424909,44.986585,78,VIA GUIDO GOZZANO,,NICHELINO,,,,092A4080-72E3-2A08-E054-0003BA0F36E6,55e40528108c28a4
7.0261304,45.121771,6,VIA SAN FRANCESCO,,GRAVERE,,,,092A404B-D849-2A08-E054-0003BA0F36E6,d64c490478ccabaf
6.8047329,45.0439449,59,VIA SAN SISTO,,SAVOULX,,,,092A404B-C68D-2A08-E054-0003BA0F36E6,17e2261513c16b97
7.8905308,45.1902113,1,VIA dell' ASILO,,CHIVASSO,,,,092A404B-B76F-2A08-E054-0003BA0F36E6,507ecab4055ae659
7.5754924,45.1341011,7,VIA ITALIA,,DRUENTO,,,,092A4076-EB0B-2A08-E054-0003BA0F36E6,5c2df76d3931a591
7.4601737,44.9806891,21,VIA PAPERIA,,PIOSSASCO,,,,092A4082-FD83-2A08-E054-0003BA0F36E6,e10e5e085ccaaf54
8.5593255,45.8655342,18,VIA alle MACHERE,,MAGOGNINO,,,,092A4078-19BD-2A08-E054-0003BA0F36E6,f38c2d84c21e5ca4
7.8726873,45.5244423,2,REGIONE TRAGNEY,,ANDRATE,,,,092A404B-A171-2A08-E054-0003BA0F36E6,09be51b81d3c744f
7.2771115,45.314706,41,FRAZIONE MARTASSINA,,ALA DI STURA,,,,092A404B-86FF-2A08-E054-0003BA0F36E6,2d48f2c6f8e5c33c
8.4314118,44.627577,30,LOCALITA' CALIOGNA,,MELAZZO,,,,092A409D-8BE4-2A08-E054-0003BA0F36E6,053f51d4d949ff20
7.6660123,44.6565404,8,VIA GATTINARA,,SAVIGLIANO,,,,092A4056-78C1-2A08-E054-0003BA0F36E6,c2719e8398fdccac
6.6977876,45.0823013,5,VICOLO del CASTELLO,,BARDONECCHIA,,,,092A409F-049C-2A08-E054-0003BA0F36E6,1f9b3424e3a22566
7.345557,45.0397677,18,VIA PINEROLO,,GIAVENO,,,,092A407F-E9D1-2A08-E054-0003BA0F36E6,0ed19e79be178d6e
7.3414379,45.0510053,111,VIA COSTE,,GIAVENO,,,,092A407F-E9E5-2A08-E054-0003BA0F36E6,5c308ce4c065c1cc
7.3936309,45.1174016,24,VIA ROMA,,ALMESE,,,,092A4082-95BE-2A08-E054-0003BA0F36E6,8fef027991afed4b
7.6607222,45.0154804,49,VIA SESTRIERE,,MONCALIERI,,,,CE98E548-6091-229F-E044-0003BA0F36E6,d3a4e72354d12fab
7.7362623,45.0044364,40,STRADA GORREE,,MONCALIERI,,,,092A4075-353B-2A08-E054-0003BA0F36E6,b18fc3679e94f2e5
7.7039868,44.9997132,35,STRADA REVIGLIASCO,,MONCALIERI,,,,CE98E548-6721-229F-E044-0003BA0F36E6,f0f9afec05d1dbb1
7.6991413,45.0196289,70,STRADA GIORGIO DE VALLE,,MONCALIERI,,,,092A4075-364E-2A08-E054-0003BA0F36E6,485ffa9be8e9b934
7.7336743,44.9836943,12,STRADA RIGOLFO,,MONCALIERI,,,,092A4075-3A59-2A08-E054-0003BA0F36E6,e21861f47ae14e93
8.0485417,45.3486774,33,VIA ALESSANDRO MANZONI,,BORGO D'ALE,,,,092A407D-7214-2A08-E054-0003BA0F36E6,abb4006ceeb26a80
8.7020299,45.4701505,2,VIA RAVIZZA,,GALLIATE,,,,0ACFA5F1-B829-4B2E-E054-0003BA0F36E6,5f3cc24cf8d8a5e9
8.4454601,45.1277363,32,VIA DON GIOVANNI MINZONI,,CASALE MONFERRATO,,,,F840954A-3BB8-49D1-E044-0003BA0F36E6,bf1216ccbfd51e4e
8.0351098,44.7022428,4,VIA FERDINANDO BOSIO,,ALBA,,,,092A4044-740F-2A08-E054-0003BA0F36E6,ba5d8ab8b74b97d7
8.5722925,44.8447968,112,SPALTO MONTEBELLO,,CASTELLAZZO BORMIDA,,,,DF1B872B-B1BC-7325-E044-0003BA0F36E6,7f69689d5e1e59e9
8.173906,45.3669086,7,VIA GUGLIELMO OBERDAN,,SANTHIA',,,,092A407D-90AA-2A08-E054-0003BA0F36E6,7f783c158272e655
7.7220582,45.1944633,139,VIA LORENZO PERINO,,LEINI',,,,092A4081-837C-2A08-E054-0003BA0F36E6,f69f710af26e602b
7.6386568,45.1775891,30,VIALE ALCIDE BONA,,CASELLE TORINESE,,,,092A404D-8DF6-2A08-E054-0003BA0F36E6,67d44795866e26f7
8.0280523,44.7091148,4,CORSO CANALE,,MUSSOTTO,,,,092A4082-4415-2A08-E054-0003BA0F36E6,3b27704d59bd479d
7.6970413,45.4016106,124,STRADA FILIA,,CASTELLAMONTE,,,,092A4081-3656-2A08-E054-0003BA0F36E6,5a38cb780d953d21
8.0909692,44.902159,,VIA GUGLIELMO MARCONI,,BALDICHIERI D'ASTI,,,,0965A4CE-C4BE-5214-E054-0003BA0F36E6,fa0fd22a8d9707d9
7.2377518,45.1231812,10,VIA MARIO TACCA,,BORGONE SUSA,,,,092A404D-C72B-2A08-E054-0003BA0F36E6,47b93ff8557b1482
8.3893145,45.3592486,6,VIA ALDO MORO,,CARESANABLOT,,,,092A409D-83C9-2A08-E054-0003BA0F36E6,06def82422941b16
8.364788,44.6281667,17,VIA CAVOUR,,PONTI,,,,092A409D-8491-2A08-E054-0003BA0F36E6,ce15ffca70ae7ac9
7.4960171,45.2243137,11,VICOLO BARTUME',,VALLO TORINESE,,,,1AE62A2C-C2E1-265C-E054-0003BA0F36E6,646b33abb60833d2
7.6317087,44.5930991,37,STRADA COLLARELLE,,LEVALDIGI,,,,092A4046-E02D-2A08-E054-0003BA0F36E6,d292ac40a12ef6f3
7.6853823,44.6410467,13,STRADA CANAVERE,,SAVIGLIANO,,,,092A4046-DD58-2A08-E054-0003BA0F36E6,27dd37fecb2978f3
8.2782974,44.9388431,242,FRAZIONE CASTIGLIONE,,ASTI,,,,092A4056-EE19-2A08-E054-0003BA0F36E6,f43cd47ec1141a00
7.3396301,45.0524373,13,VIA MUSINE',,GIAVENO,,,,DB405A88-981F-2318-E044-0003BA0F36E6,64ae26fd08787e87
7.8818549,45.4666774,7,PIAZZA CARLO FREGUGLIA,,IVREA,,,,092A407F-5516-2A08-E054-0003BA0F36E6,8cfbc67808e45211
8.8547681,44.8796055,11,VIA ANTICA PIAZZA D'ARMI,,TORTONA,,,,092A409C-30FF-2A08-E054-0003BA0F36E6,4051679c3bb4c5a3
7.8756983,45.4762483,70,VIA SANT'ULDERICO,,IVREA,,,,092A407F-5CFF-2A08-E054-0003BA0F36E6,2b086ff3cf59e3fa
7.3314048,45.0462411,7,VIA DANTE ALIGHIERI,,GIAVENO,,,,092A407F-64FC-2A08-E054-0003BA0F36E6,d396ec34e593e215
8.4361604,45.7462921,40,VIA DANTE ALIGHIERI,,GOZZANO,,,,D880846C-698B-4D87-E044-0003BA0F36E6,2e07ab5396a1e3c4
8.0088546,44.7259102,138,CORSO CANALE,,MUSSOTTO,,,,092A4044-6EAB-2A08-E054-0003BA0F36E6,278f4d7384d8181b
7.9794411,44.7052698,6,LOCALITA' BIGLINI,,ALBA,,,,092A4044-6F50-2A08-E054-0003BA0F36E6,5c8385ae2d732fcb
7.5982557,45.2326808,18,VIA GIUSEPPE MAZZINI,,CIRIE',,,,C16A5F18-6F2F-6EC1-E044-0003BA0F36E6,024e9fcb7c6ae33a
7.5942081,45.2311638,1,VIA CASTEGNA,,CIRIE',,,,C16A5F18-6F57-6EC1-E044-0003BA0F36E6,fac763af5a89d42b
8.4973225,45.7428692,33,VIA CAMILLO BENSO CAVOUR,,BARQUEDO,,,,D7CCF4CF-78D3-036D-E044-0003BA0F36E6,6dea40cef107ce7d
8.8302478,44.7368954,165,STRADA di SERRAVALLE,,NOVI LIGURE,,,,092A409C-0C9C-2A08-E054-0003BA0F36E6,2facf36a4b5668f8
7.8588949,45.4535831,38,VIA CASTELLAMONTE,,BANCHETTE,,,,092A407B-328D-2A08-E054-0003BA0F36E6,33afe4f65f4a441b
8.2062076,44.7153534,17,LOCALITA' MARINI,,SANTO STEFANO BELBO,,,,092A4046-D4A7-2A08-E054-0003BA0F36E6,86737e94e7d5a885
8.3403643,44.5515874,3,REGIONE VICO,,SPIGNO MONFERRATO,,,,092A409D-9B11-2A08-E054-0003BA0F36E6,9427a4bb06d79076
7.828471,45.0369578,1,SP del CERVO,,CHIERI,,,,092A4056-4626-2A08-E054-0003BA0F36E6,ecc8aab860116d22
8.6781044,44.8827956,35,VIA ANTONIO PERFUMO,,SPINETTA MARENGO,,,,FBB5CDED-F96B-3665-E044-0003BA0F36E6,cb973abe09a6a964
8.1823186,45.8510104,5,FRAZIONE SOTTONOCI,,CRAVAGLIANA,,,,092A4048-36AD-2A08-E054-0003BA0F36E6,c91e3dd425bff91f
7.0225878,45.1224568,27,VIA EUROPA,,GRAVERE,,,,092A404A-E948-2A08-E054-0003BA0F36E6,666b9fe6952ea93e
8.3638595,45.0959218,10,VIA FULVIO MAZZUCCO,,TREVILLE,,,,0ACFA5F1-B824-4B2E-E054-0003BA0F36E6,c6233d5aa71dc1cc
7.1802446,44.9602051,5,BORGATA BOUT,,POMARETTO,,,,092A404A-F3A7-2A08-E054-0003BA0F36E6,872c2d018316ff8f
7.2343385,45.128606,7,FRAZIONE CHIAMPANO,,BORGONE SUSA,,,,092A404C-2A5B-2A08-E054-0003BA0F36E6,fb2fdde6ba7770f3
7.1880153,45.1585266,21,FRAZIONE PAVAGLIONE,,CHIANOCCO,,,,092A404B-159E-2A08-E054-0003BA0F36E6,ac9226f468dcb6db
7.9016463,45.0487529,3,VIA TETTI CHIAFFREDO,,ARIGNANO,,,,092A404B-D41B-2A08-E054-0003BA0F36E6,93e837cd51052074
8.5218985,44.6967749,31,VIA SEGHINI STRAMBI,,STREVI,,,,092A409D-1B00-2A08-E054-0003BA0F36E6,314c2b61aaf62c5c
7.3951361,45.3443347,67,FRAZIONE VRU',,CANTOIRA,,,,092A404B-EEBF-2A08-E054-0003BA0F36E6,d978765bf8aa983e
7.8430069,44.9662159,11,VIA DOMENICO SAVIO,,CHIERI,,,,1B0EB36E-448E-3765-E054-0003BA0F36E6,0d73f8f1a8c293de
7.2941729,44.7989002,11,VIA FENILE,,BIBIANA,,,,092A404C-FD6E-2A08-E054-0003BA0F36E6,58660c360a9c6a18
7.2495084,44.7958115,8,VIA OLIVA,,LUSERNETTA,,,,092A404B-3786-2A08-E054-0003BA0F36E6,d3d347816ece88f0
7.2018659,44.8753343,278,LOCALITA' VACCERA,,SERRE,,,,092A404C-230D-2A08-E054-0003BA0F36E6,b29e6df5703e61c8
7.4923893,44.6206028,32,VIA DUCCIO GALIMBERTI TANCREDI,,MANTA,,,,DD750956-7907-1EE3-E044-0003BA0F36E6,60284ea98c36c829
8.4248019,46.3775319,48,FRAZIONE PONTE,,FORMAZZA,,,,0D8CF667-13C2-6258-E054-0003BA0F36E6,c75b0f2ce51546a0
8.4460733,44.6645367,207,VIA CASSAROGNA,,ACQUI TERME,,,,092A4092-B4C6-2A08-E054-0003BA0F36E6,e1f2b6ae2e3aff30
8.6154873,44.6326618,52 A,VIA BELLETTI,,CREMOLINO,,,,092A4093-CC3F-2A08-E054-0003BA0F36E6,cd882a09b7d2f87a
8.1446846,44.9531654,202,FRAZIONE SERRAVALLE,,ASTI,,,,092A4056-DC49-2A08-E054-0003BA0F36E6,5bb186c7d50c8fcb
8.2216821,44.9012973,48,VIA ALESSANDRO LAMARMORA,,ASTI,,,,092A4056-D8CA-2A08-E054-0003BA0F36E6,5f93ffa15c38203b
8.5875321,44.6819023,31,VIA della CROCE,,MONTALDO BORMIDA,,,,092A409E-BBB3-2A08-E054-0003BA0F36E6,5959ceaefe440a04
8.2151334,44.9001542,15,CORSO PIETRO CHIESA,,ASTI,,,,092A4056-D208-2A08-E054-0003BA0F36E6,c9d1bf83d90b39a5
8.7752323,44.7437862,42,STRADA ROCCA SPARVIERA,,NOVI LIGURE,,,,092A4044-2B4E-2A08-E054-0003BA0F36E6,549b5ca307b7a4ff
8.0462173,44.306515,51,VIA NAZIONALE,,BAGNASCO,,,,092A4044-887D-2A08-E054-0003BA0F36E6,ef364fe1bc5e7f7b
8.2024859,44.8978251,41,VIA CESARE BALBO,,ASTI,,,,092A4056-CD85-2A08-E054-0003BA0F36E6,100630f6f8442769
8.194242,44.8973936,28,VIA PORTA ROMANA,,ASTI,,,,092A4056-C7A4-2A08-E054-0003BA0F36E6,4a0946441756b843
8.182884,44.8950984,75,VIALE DON ALFREDO BIANCO,,ASTI,,,,092A4056-C84E-2A08-E054-0003BA0F36E6,6e8b0aae8ca76c23
8.2940393,44.9154192,166,FRAZIONE QUARTO INFERIORE,,ASTI,,,,092A4056-C5C9-2A08-E054-0003BA0F36E6,ef4cb6ab15eaa730
7.8435739,45.1756714,21,VIA SAN GIOVANNI BOSCO,,BRANDIZZO,,,,092A4055-E71C-2A08-E054-0003BA0F36E6,a78acee380114025
7.7381985,44.8326403,137,VIA SOMMARIVA,,CARMAGNOLA,,,,092A4092-2E52-2A08-E054-0003BA0F36E6,2dd96469f1e20e73
7.724259,44.8427614,24,VIA LUIGI EINAUDI,,CARMAGNOLA,,,,092A4092-3627-2A08-E054-0003BA0F36E6,6494bd7c67df3bf5
7.8293157,45.0067516,12,PIAZZA EUROPA,,CHIERI,,,,092A4055-EC94-2A08-E054-0003BA0F36E6,66fd05b6d3170cfc
7.8330246,45.0196983,89,STRADA ANDEZENO,,CHIERI,,,,092A4055-ECE9-2A08-E054-0003BA0F36E6,1b9ad792d861667e
8.8047346,44.7628488,5,VIA ALDO MASSIGLIA,,NOVI LIGURE,,,,092A4084-8121-2A08-E054-0003BA0F36E6,77af8958bbfb1841
8.7975065,44.7655774,46,VIA ALESSANDRO MANZONI,,NOVI LIGURE,,,,092A4084-84DC-2A08-E054-0003BA0F36E6,32a49f171695feb5
8.7896344,44.7458751,55 A,STRADA di GAVI,,NOVI LIGURE,,,,092A4083-A909-2A08-E054-0003BA0F36E6,11e193cadd0ea1a6
7.8554515,45.2322852,1,VICOLO CARLO FERRERI,,MONTANARO,,,,092A404B-6B52-2A08-E054-0003BA0F36E6,7eedc26c27901621
8.2773685,45.2522881,16,VIA CESARE BATTISTI,,RONSECCO,,,,092A4055-F923-2A08-E054-0003BA0F36E6,506d252d09b6fd11
8.3250176,45.2349861,7,VIA SANTA LIBERATA,,TRICERRO,,,,092A4055-E898-2A08-E054-0003BA0F36E6,2f8206f6720ea6f3
7.713342,44.8413741,55,VIA RACCONIGI,,CARMAGNOLA,,,,092A4092-3F00-2A08-E054-0003BA0F36E6,44909bd0e956c296
8.7891107,44.758743,4,VICOLO MASSERIA,,NOVI LIGURE,,,,092A4083-8145-2A08-E054-0003BA0F36E6,fa00b24b8ed9ca62
8.7831777,44.7615091,1,VICOLO FORNO MONACHE,,NOVI LIGURE,,,,092A4083-7920-2A08-E054-0003BA0F36E6,739098e5a5e23012
8.7935915,44.7710348,17 C,CROSA della MACCARINA,,NOVI LIGURE,,,,092A4083-8334-2A08-E054-0003BA0F36E6,2b54282cd2981ed8
7.3509228,45.043167,21,VIA IV MARZO,,GIAVENO,,,,092A407F-9445-2A08-E054-0003BA0F36E6,5a6d75dbbfaa11a9
8.0254499,45.3068466,60,VIA PASQUALE BERTAZZI,,CIGLIANO,,,,092A4091-ED02-2A08-E054-0003BA0F36E6,39211dd59677335f
7.4707304,44.3950416,45,VIA DIVISIONE CUNEENSE,,SAN ROCCO,,,,092A4044-2FFE-2A08-E054-0003BA0F36E6,42a2f2adc19a3717
8.2116827,44.9119727,16,VIA FELICE PLATONE,,ASTI,,,,092A407B-ED5E-2A08-E054-0003BA0F36E6,fcf4e4120d7bbdba
8.3640676,44.6281537,49,VIA CAMPO SPORTIVO,,PONTI,,,,092A4094-6014-2A08-E054-0003BA0F36E6,aab85d01cdb11bc5
7.6639181,44.6538151,35,STRADA RAVIAGNA,,SAVIGLIANO,,,,092A4056-7759-2A08-E054-0003BA0F36E6,b3f79f88752fdf62
7.651475,44.6514183,8,STRADA SAN GIACOMO,,SAVIGLIANO,,,,092A4056-7664-2A08-E054-0003BA0F36E6,c56a788fd9afccc3
7.6552538,44.6456202,8,VIA LUIGI MIRETTI,,SAVIGLIANO,,,,092A4056-6B79-2A08-E054-0003BA0F36E6,9ff7c90889c89a2b
8.5253963,44.7011107,21,VIA ALESSANDRIA,,STREVI,,,,092A4093-CD7F-2A08-E054-0003BA0F36E6,e0f7e24dce8854e4
8.5221116,44.6959431,15,VIA OSVALDO CALDANO,,STREVI,,,,092A4092-C803-2A08-E054-0003BA0F36E6,6911521b3c8ed8c8
7.8239241,45.0090277,9,VIA GUALDERIA,,CHIERI,,,,092A4056-4E3C-2A08-E054-0003BA0F36E6,96bc1bafb5db90a7
7.475288,44.3972182,41,VIA DON GIOVANNI BATTISTA ASTRE,,SAN ROCCO,,,,092A4044-2E7D-2A08-E054-0003BA0F36E6,881a49a4c1b09707
8.7975892,44.7609954,15,VIA DANTE ALIGHIERI,,NOVI LIGURE,,,,092A4084-D56D-2A08-E054-0003BA0F36E6,24fb1b73d27260bb
8.7915802,44.7601429,1,VIA EDILIO RAGGIO,,NOVI LIGURE,,,,092A4084-E076-2A08-E054-0003BA0F36E6,20d5d1bbb3acc3e7
8.7833285,44.7666947,47,VIA GIOVANNI AMENDOLA,,NOVI LIGURE,,,,092A4084-3856-2A08-E054-0003BA0F36E6,611197dffd0f2d38
8.7885417,44.7675102,60,VIALE della RIMEMBRANZA,,NOVI LIGURE,,,,092A4084-4F9E-2A08-E054-0003BA0F36E6,4e95500d61bc333e
8.7955889,44.7669288,9,VIA MONTELLO,,NOVI LIGURE,,,,092A4084-586D-2A08-E054-0003BA0F36E6,a428de63d0a2f912
8.076017,45.3675404,2,PIAZZA GIOVANNI CROSIO,,ALICE CASTELLO,,,,092A407C-E53D-2A08-E054-0003BA0F36E6,129537458d428944
7.9003986,44.7450106,4,PIAZZA TORINO,,SOMMARIVA PERNO,,,,092A4047-E57C-2A08-E054-0003BA0F36E6,a51f24443898cc15
7.8187578,45.3808767,1,VIA ROLLINO,,VIALFRE',,,,1CB594DA-A510-2700-E054-0003BA0F36E6,fa8a10b2e89190a3
8.1232127,45.3090253,3,CORSO ITALIA,,BIANZE',,,,092A4048-2631-2A08-E054-0003BA0F36E6,086fcf61eb03e8b3
8.12299,45.3085015,26,VIA GUGLIELMO MARCONI,,BIANZE',,,,092A4048-265E-2A08-E054-0003BA0F36E6,ef167effbc25a117
8.1197538,45.3044574,10,VIA GIACOMO PUCCINI,,BIANZE',,,,092A4048-1EED-2A08-E054-0003BA0F36E6,e8566b6b6f8045fb
8.7895736,44.7602202,74,VIA CAMILLO BENSO CAVOUR,,NOVI LIGURE,,,,092A4089-6D3F-2A08-E054-0003BA0F36E6,6a4728f589b2215e
8.7916518,44.7666832,71,VIALE della RIMEMBRANZA,,NOVI LIGURE,,,,092A4089-6E0C-2A08-E054-0003BA0F36E6,982e9777ec08b06a
8.8057348,44.7655827,7,VIA MONTE SANTO,,NOVI LIGURE,,,,092A4089-719F-2A08-E054-0003BA0F36E6,c533bf2cb76d0784
7.5279214,44.9139957,32,CASCINA OLLERA,,NONE,,,,20568480-FEFD-3087-E054-0003BA0F36E6,ce7fa1da9443d139
7.6607934,45.3327449,18,VIA delle NOCETTE,,BUSANO,,,,092A404E-1415-2A08-E054-0003BA0F36E6,710b9eba155b09ce
8.6387827,44.6472499,58,VIA COLOMBO GAJONE,,OVADA,,,,092A4095-AC1C-2A08-E054-0003BA0F36E6,14c28ea1567b115e
7.3779745,44.8423507,9,REGIONE TRABUCCHI,,GARZIGLIANA,,,,092A404C-EB71-2A08-E054-0003BA0F36E6,8ebd6b9b83517de6
8.4683913,44.6752522,31,VIA GIUSEPPE MAZZINI,,ACQUI TERME,,,,092A4095-93AD-2A08-E054-0003BA0F36E6,0e9ba99814d60dfa
7.5342737,44.9350116,29,VIA BENEDETTO CROCE,,NONE,,,,092A404C-E95F-2A08-E054-0003BA0F36E6,156109f5ffc2214b
8.7897068,44.7750922,118,VIA GIUSEPPE MAZZINI,,NOVI LIGURE,,,,092A4086-1B58-2A08-E054-0003BA0F36E6,04260579107f3b11
8.8047162,44.7631548,10,VIA ALDO MASSIGLIA,,NOVI LIGURE,,,,092A4086-1EC8-2A08-E054-0003BA0F36E6,143589821e1661e0
8.7930828,44.7717045,14 E,VIA GALILEO GALILEI,,NOVI LIGURE,,,,092A4086-8255-2A08-E054-0003BA0F36E6,b8443962fac4db4f
7.6829078,44.9990129,5,VIA CRISTOFORO COLOMBO,,MONCALIERI,,,,092A4086-05F0-2A08-E054-0003BA0F36E6,623649e3730b4517
8.3008946,45.7034207,108,VIA ANGELO OTTONE,,BORGOSESIA,,,,092A4086-7D23-2A08-E054-0003BA0F36E6,da172ed72f4de9f5
7.3205517,45.3663327,1,VIA BUSSONI,,CHIALAMBERTO,,,,092A404E-1064-2A08-E054-0003BA0F36E6,c7f7e061b8cf1082
8.0479853,45.3520483,10,VIA CIRCONVALLAZIONE,,BORGO D'ALE,,,,092A407D-383F-2A08-E054-0003BA0F36E6,1433893e3c72f88b
8.0500934,45.3463455,106,VIA GIACOMO MATTEOTTI,,BORGO D'ALE,,,,092A407D-38EE-2A08-E054-0003BA0F36E6,b4b4ec12f46a0bf9
8.7935428,44.7639589,7,VIA MONTE GRAPPA,,NOVI LIGURE,,,,092A4086-875A-2A08-E054-0003BA0F36E6,998b191eb5a60e42
7.6408014,44.9987085,2,VIA del PASCOLO,,NICHELINO,,,,092A404E-157D-2A08-E054-0003BA0F36E6,93331a72247d4c7d
8.0186067,45.3077197,7,VIA PERINOTTI,,CIGLIANO,,,,092A4098-81BC-2A08-E054-0003BA0F36E6,ea02c35836161c5b
8.0200721,45.305869,80,VIA PASTORIS,,CIGLIANO,,,,092A4098-8306-2A08-E054-0003BA0F36E6,0db9be884dbc24e8
7.8323178,45.0013317,14,STRADA TETTI FASANO,,CHIERI,,,,1B0EB36E-43C1-3765-E054-0003BA0F36E6,9bea83719cb25903
7.6847635,45.1932522,55,VIA LAVORESCO,,CASELLE TORINESE,,,,092A404A-FAC8-2A08-E054-0003BA0F36E6,3fea8d89ddeaeb9c
7.8571193,45.4471655,51,VIA CIRCONVALLAZIONE,,VIA CIRCONVALLAZIONE,,,,092A407B-1A32-2A08-E054-0003BA0F36E6,3d5342dc025d6d63
7.4753407,45.0167203,12,VIA VOLVERA,,BRUINO,,,,092A404D-155B-2A08-E054-0003BA0F36E6,6efa26d6e08b323d
8.8966065,44.7086128,43,VIA GIOVANNI PASCOLI,,VIGNOLE BORBERA,,,,092A409E-E5E3-2A08-E054-0003BA0F36E6,07ae7b5a57e301db
8.6482954,44.6401676,29,PIAZZA GIUSEPPE GARIBALDI,,OVADA,,,,092A4096-DC77-2A08-E054-0003BA0F36E6,a807fb0319742668
8.5470766,44.742272,48,VIA CAVALCHINI,,CASTELNUOVO BORMIDA,,,,092A4097-4A27-2A08-E054-0003BA0F36E6,52933fb8c5ababbf
7.3733074,44.9520016,12,VIA PARROCCHIA,,TAVERNETTE,,,,092A404D-43BE-2A08-E054-0003BA0F36E6,6982f93c78776c9c
8.2405395,44.719944,13,LOCALITA' VOGLIERE,,SANTO STEFANO BELBO,,,,092A4046-D4BB-2A08-E054-0003BA0F36E6,b3a3509bc8bb887e
7.2023621,44.9619057,1,BORGATA BARAL,,PEROSA ARGENTINA,,,,092A404C-F206-2A08-E054-0003BA0F36E6,abf8f45b3ce7b9aa
7.6415329,45.2882572,1,BORGATA FANDAGLIA,,BARBANIA,,,,092A404C-1066-2A08-E054-0003BA0F36E6,b5010327c0818b4f
7.5435382,45.2597343,12,VIA DON BOSCO,,CENTRO,,,,092A404D-9AD5-2A08-E054-0003BA0F36E6,508be408defe5511
7.7584563,45.0055756,74,STRADA VALLE SAUGLIO,,PECETTO TORINESE,,,,092A404D-7E56-2A08-E054-0003BA0F36E6,9fa17f09f39b4a06
7.7589522,45.0203441,19,STRADA TETTI CANAPE,,PECETTO TORINESE,,,,092A404D-56D8-2A08-E054-0003BA0F36E6,73c56b0d1e25d063
7.5935156,45.4213601,14,VIA GUGLIELMO MARCONI,,PONT-CANAVESE,,,,092A404D-1F6A-2A08-E054-0003BA0F36E6,4b8574a3680d2f0a
7.3723131,44.9783092,5,STRADA RUATA BRUNA,,BORGATA RUATA BRUNA,,,,2193F5B3-8C7C-14DD-E054-0003BA0F36E6,2c5e138d5d861d58
7.4575117,44.4013458,23,VIA PELLEGRINO,,SAN ROCCO,,,,092A4044-3850-2A08-E054-0003BA0F36E6,ae629c2adcde70b9
7.0505897,45.0363005,53,VIA NAZIONALE,,FENESTRELLE,,,,092A404D-F732-2A08-E054-0003BA0F36E6,7c2d928461d3ee05
7.5249488,45.0954404,2,VIA ALESSANDRO CRUTO,,VECCHIO,,,,092A404D-E503-2A08-E054-0003BA0F36E6,9404eccb337c5568
7.3271637,44.8798991,2,VIA DOTTOR MARIO RISSO,,PINEROLO,,,,092A404D-DF27-2A08-E054-0003BA0F36E6,e39d82191aca616a
7.3266153,44.8872278,2,VIA JACOBINO LONGO,,PINEROLO,,,,092A404D-DE41-2A08-E054-0003BA0F36E6,ec157e5cd2452a69
7.7837937,44.9678645,13,VIA GIUSEPPE BEVILACQUA,,CAMBIANO,,,,092A404D-D9E1-2A08-E054-0003BA0F36E6,c100ba2dfcb533d7
7.7723669,45.2307921,47,VIA LEONARDO DA VINCI,,SAN BENIGNO CANAVESE,,,,1FF24A6A-94CC-5964-E054-0003BA0F36E6,4ae6068ea4102d40
6.8198492,44.932309,78,FRAZIONE BOUSSON,,CESANA TORINESE,,,,092A404D-D74D-2A08-E054-0003BA0F36E6,dcef9f18b8d367bb
7.8564605,45.5100682,2,VIA BAIO DORA,,BORGOFRANCO D'IVREA,,,,092A404D-CEF6-2A08-E054-0003BA0F36E6,16dbeebbdf96e94b
7.7787121,44.9736751,10,VIA GUGLIELMO BORGARELLI,,CAMBIANO,,,,092A404D-A89A-2A08-E054-0003BA0F36E6,a3b9f463b42355cd
7.9557921,45.117742,7,STRADA GIANGRANDA,,CASE SPARSE,,,,092A404D-A9D5-2A08-E054-0003BA0F36E6,b22bbf48f7b6d20a
7.5684708,45.0647761,38,VIA DON MARIO CAUSTICO,,GRUGLIASCO,,,,092A404D-A67E-2A08-E054-0003BA0F36E6,2b69a006ca007882
7.5263836,45.0898418,22,VIA PIETRE,,TALLE,,,,092A404D-A1B0-2A08-E054-0003BA0F36E6,16996d21136fd383
7.056919,45.124194,14,VIA CANTALUPO,,MEANA DI SUSA,,,,092A404D-9DEB-2A08-E054-0003BA0F36E6,d1936c6dfcae2012
8.0548147,45.147194,273,VIA CRISTOFORO COLOMBO,,CAVAGNOLO,,,,092A404D-8ED2-2A08-E054-0003BA0F36E6,d083b893519b492e
8.0524714,45.1551545,9,VIA ALESSANDRO MANZONI,,CAVAGNOLO,,,,092A404D-7807-2A08-E054-0003BA0F36E6,058967509f050b81
7.3729343,44.7957692,52,VIA ANTICA di PINEROLO,,CAVOUR,,,,092A404D-6632-2A08-E054-0003BA0F36E6,cd02d87a5322bcc0
7.5776904,45.070756,3,VIA NAZARIO SAURO,,COLLEGNO,,,,092A404D-92AB-2A08-E054-0003BA0F36E6,88b2a8a46d6a9bba
7.8099117,45.0098547,16,VIA del VALLO,,CHIERI,,,,092A4094-4B1A-2A08-E054-0003BA0F36E6,b8a24efcdb0fb4f7
7.5961426,45.0286712,4,VIA GIACOMO PUCCINI,,BEINASCO,,,,092A4089-778F-2A08-E054-0003BA0F36E6,9f309c5e988c263f
8.6615226,44.6246242,2,VIA SAN COLOMBANO,,BELFORTE MONFERRATO,,,,092A409C-27C2-2A08-E054-0003BA0F36E6,1bafc33e8b9d959f
7.489223,45.2083137,41,VIA ROMA,,VARISELLA,,,,1AE62A2C-C331-265C-E054-0003BA0F36E6,8574e2aaa3094ec5
8.3890168,45.4957376,6,PIAZZA SANTA MARIA,,ARBORIO,,,,092A4093-58CC-2A08-E054-0003BA0F36E6,4390c33e417a3113
7.2989744,45.0514157,17,VIA DE FERNEX,,COAZZE,,,,092A4055-B4F9-2A08-E054-0003BA0F36E6,f7b2beacf38ec35b
7.6593371,44.6550308,11,VIA BARBERIS E CHIAROFONTE,,SAVIGLIANO,,,,092A4056-7BA5-2A08-E054-0003BA0F36E6,f26427936b2492a6
7.6694931,44.6488299,9,VIA dell' ARTIGIANATO,,SAVIGLIANO,,,,092A4056-7C22-2A08-E054-0003BA0F36E6,9346694f8979e3c7
7.6584256,44.6562714,23,VIA del PASCOLO,,SAVIGLIANO,,,,092A4056-77D1-2A08-E054-0003BA0F36E6,809b00655af511b9
7.655081,44.6481839,51,PIAZZA del POPOLO,,SAVIGLIANO,,,,092A4056-6CE1-2A08-E054-0003BA0F36E6,500c559dc82358d0
8.2766147,44.9367125,237 A,FRAZIONE CASTIGLIONE,,ASTI,,,,092A4056-EE05-2A08-E054-0003BA0F36E6,1bc014f8f856d2b6
8.8413901,44.7872478,10,STRADA di BUSSETO,,NOVI LIGURE,,,,092A4089-716D-2A08-E054-0003BA0F36E6,4363db1b01635968
7.1137127,45.1182557,129,VIA GILLO,,MATTIE,,,,092A404C-698A-2A08-E054-0003BA0F36E6,466afcde8e732f2f
7.3694678,44.9253773,2,VIA TORINO,,FROSSASCO,,,,092A404C-0E04-2A08-E054-0003BA0F36E6,1583cd1f1ac45bab
7.7420001,45.1900624,31,VIA ROVEGLIA RUFFINI,,LEINI',,,,092A4081-74F9-2A08-E054-0003BA0F36E6,d4431bbe95caf042
7.7324068,45.3508224,13,VIA FAULENTA,,OZEGNA,,,,092A404A-D36D-2A08-E054-0003BA0F36E6,3e98bae63389f37a
7.5933486,45.3710001,3,FRAZIONE LOMBARNERO,,CANISCHIO,,,,092A404D-8586-2A08-E054-0003BA0F36E6,a7c878719ee047b1
7.7095209,45.1846951,33,VIA CASELLE VECCHIA,,LEINI',,,,092A4081-6FEF-2A08-E054-0003BA0F36E6,0ed74df08a4c59c0
8.6086539,44.634196,38,VIA BELLETTI,,CREMOLINO,,,,092A4099-681B-2A08-E054-0003BA0F36E6,b55e201c4aea13ee
7.3134689,44.7607788,34,PIAZZA SAN PIETRO,,BAGNOLO PIEMONTE,,,,092A4049-DBE8-2A08-E054-0003BA0F36E6,961e02b7e43ba82b
8.7994183,44.7586895,17 A,VIA LODOLINO,,NOVI LIGURE,,,,092A408B-2CAB-2A08-E054-0003BA0F36E6,4976725d59dbf052
6.7058233,45.0752526,37,VIA MONTENERO,,BARDONECCHIA,,,,092A409F-1130-2A08-E054-0003BA0F36E6,3db693829c0050b2
6.6816946,45.0597636,203,SP MELEZET,,BARDONECCHIA,,,,092A409F-113A-2A08-E054-0003BA0F36E6,3d2ed34a4bd8848a
7.8541738,45.4354973,6,PIAZZA MUNICIPIO,,PAVONE CANAVESE,,,,092A407D-032E-2A08-E054-0003BA0F36E6,8d178a6110fe5b80
7.2405128,45.1242725,2,FRAZIONE CHIANTUSELLO,,BORGONE SUSA,,,,092A404A-F96F-2A08-E054-0003BA0F36E6,a4aaf0b2c1f671f5
7.3654166,44.9342764,2,STRADA ANTICA di PINEROLO,,FROSSASCO,,,,092A404A-F988-2A08-E054-0003BA0F36E6,eb4886ce8b640ed4
8.0757244,45.367448,51,VIA ITALIA,,ALICE CASTELLO,,,,092A407C-E556-2A08-E054-0003BA0F36E6,fc98d8639638317e
7.9110373,44.3438118,50,VIA DON LUIGI GASCO,,ROATTA,,,,092A4047-E676-2A08-E054-0003BA0F36E6,aa8984903a99f131
7.6536208,44.9967224,6,VIA GENERALE GIUSEPPE PEROTTI,,NICHELINO,,,,CE98E548-77DE-229F-E044-0003BA0F36E6,70ca56e53cd468c9
6.7928514,44.9524273,5,VIA FRANCESCO CHAREUN,,CESANA TORINESE,,,,092A404A-B865-2A08-E054-0003BA0F36E6,27864b5f077f125b
7.6035092,45.2286989,16,VIA TORINO,,CIRIE',,,,C16A5F18-48EC-6EC1-E044-0003BA0F36E6,48368086f3879fed
8.113586,45.1983536,1,STRADA LIGNOLA,,LIGNOLA,,,,092A4048-3874-2A08-E054-0003BA0F36E6,70c1ee8a3dde7076
7.593542,44.9568262,38,VIA PINEROLO,,CANDIOLO,,,,092A404B-8998-2A08-E054-0003BA0F36E6,5c741717c1418d6d
8.4308777,44.6742342,84,VIA STAZIONE,,TERZO,,,,092A4097-9658-2A08-E054-0003BA0F36E6,7644ff09f96f2195
8.4200094,44.5919102,38,PIAZZA UMBERTO TERRACINI,,CARTOSIO,,,,092A4097-476B-2A08-E054-0003BA0F36E6,30c5598aa3a9b47e
8.0114031,44.6889686,17,VIA dell' ACQUEDOTTO,,ALBA,,,,092A4082-27EB-2A08-E054-0003BA0F36E6,1fb0ae40d2266574
8.0053836,44.7096038,109,CORSO BRA,,MUSSOTTO,,,,092A4082-42A3-2A08-E054-0003BA0F36E6,315249547663780a
7.9010687,45.497837,1,VIA PORTA NONA,,CHIAVERANO,,,,092A404C-0062-2A08-E054-0003BA0F36E6,b6cf25fe69a69d44
7.8455728,44.9179325,6,VIA TRIESTE,,POIRINO,,,,092A404B-FD1F-2A08-E054-0003BA0F36E6,83df5735d5d9accf
7.60225,45.4177723,1,LOCALITA' OLTREORCO,,PONT-CANAVESE,,,,092A404B-F383-2A08-E054-0003BA0F36E6,aedc13e827a6fdd5
7.8968115,45.1900651,19,VIA MEZZANO,,CHIVASSO,,,,092A404B-EA64-2A08-E054-0003BA0F36E6,21216ae95f635601
8.5295096,44.7532964,11,STRADA MOGLIA,,CASSINE,,,,F95D137D-B120-2F81-E044-0003BA0F36E6,8511b82e40fbce85
8.5309508,44.7526001,26,STRADA MOGLIA,,CASSINE,,,,F95D137D-B15C-2F81-E044-0003BA0F36E6,4eb6c19d0f59a577
7.066088,45.1188811,16,VIA DURANTE,,MEANA DI SUSA,,,,092A404C-50FD-2A08-E054-0003BA0F36E6,0f410e0514f1402a
7.6135948,45.4390996,24,BORGATA CHIAPINETTO,,FRASSINETTO,,,,092A404C-1011-2A08-E054-0003BA0F36E6,ab2ed59fe5e53c55
7.3371698,45.3647397,5,VIA CASA BIANCA,,CHIALAMBERTO,,,,092A404C-11A1-2A08-E054-0003BA0F36E6,30c5c1ca50956060
7.5747879,45.0699951,76,VIA SAN ROCCO,,GRUGLIASCO,,,,092A404C-0CBF-2A08-E054-0003BA0F36E6,52761f52419a6f26
7.5178838,45.1807392,9,VIA LUIGI MUSSATTI,,LA CASSA,,,,092A404B-EFEB-2A08-E054-0003BA0F36E6,c50100c176f9bb2d
7.3071474,45.1189202,1,VIA REGALDI,,CONDOVE,,,,092A404B-F040-2A08-E054-0003BA0F36E6,51d142bf4271bfca
6.8047222,45.0439132,138,VIA SAN SISTO,,SAVOULX,,,,092A404B-C697-2A08-E054-0003BA0F36E6,bdea9c5f03c21aa8
7.7147403,45.1747711,4,VIA VITTORIO ALFIERI,,LEINI',,,,092A409A-BC6B-2A08-E054-0003BA0F36E6,5b72f7d84589e4cd
7.8551539,45.4368574,1,VIA SAN GRATO,,PAVONE CANAVESE,,,,19B72DF4-C2CB-01C6-E054-0003BA0F36E6,594cde99835ab41c
7.8198164,44.3955094,8,VIA PIETRO DELVECCHIO,,MONDOVI',,,,245650D8-6F0E-6915-E054-0003BA0F36E6,77b0a8586b9f5146
7.8074677,45.0523496,81,STRADA PINO TORINESE,,BALDISSERO TORINESE,,,,092A404C-E315-2A08-E054-0003BA0F36E6,a87c71e91d97d798
7.8200649,44.3843755,2 /4,VIA SEBASTIANO ODERDA,,MONDOVI',,,,245650D8-7071-6915-E054-0003BA0F36E6,2e8164afe35e5bbf
7.1508907,44.9834266,2,BORGATA SERRE,,MEANO,,,,092A404D-7A96-2A08-E054-0003BA0F36E6,7c087885ba9fbbb9
7.8326266,45.0673456,4,VIA BALDISSERO,,PAVAROLO,,,,092A404D-883D-2A08-E054-0003BA0F36E6,75496e302b23d088
7.3278797,44.7894649,1,VIA SAN BARTOLOMEO,,SAN BARTOLOMEO,,,,092A404C-FCBF-2A08-E054-0003BA0F36E6,c24821932d4e15be
7.2894341,44.7944137,41,VIA BAGNOLO,,BIBIANA,,,,092A404D-03C2-2A08-E054-0003BA0F36E6,fbe050bf234ef238
7.4855424,44.4118716,25,VIA GRAFFINO,,SAN ROCCO,,,,092A4044-3233-2A08-E054-0003BA0F36E6,741f2a08fac793f0
7.4405168,44.3782838,35,VIA SAN GIACOMO,,BERNEZZO,,,,092A4044-32AB-2A08-E054-0003BA0F36E6,947a0ccb4c5bafeb
7.6334945,45.335887,15,BORGATA MANTELLO,,RIVARA,,,,19D27211-D562-014C-E054-0003BA0F36E6,01a3031936b0d1e1
7.626025,45.3346047,1 4,VIA ROMA,,RIVARA,,,,19D27211-D5EE-014C-E054-0003BA0F36E6,8501d97f87055efa
7.326537,44.8042358,1,VIA FIRMINO RICCA,,CAMPIGLIONE-FENILE,,,,092A404D-05B1-2A08-E054-0003BA0F36E6,fa60b575f048555b
6.8331323,45.0270374,10,VIA SAUZE D'OULX,,OULX,,,,092A404D-0F52-2A08-E054-0003BA0F36E6,789744f195d6b2d3
7.4685257,44.9980492,2,VIA SANGANO,,PIOSSASCO,,,,092A404D-0B8D-2A08-E054-0003BA0F36E6,c1763f4b95bf6390
7.5419286,44.7604724,4,VIA BRA,,MORETTA,,,,092A4049-D922-2A08-E054-0003BA0F36E6,304fd0662980cd4e
7.0147467,45.1902926,79,VIA MAESTRA,,NOVALESA,,,,092A404B-C372-2A08-E054-0003BA0F36E6,d45323eb65210c13
7.054619,44.9592542,1,BORGATA REYNAUD,,MASSELLO,,,,092A404B-C426-2A08-E054-0003BA0F36E6,3f5f9228320d4c97
6.7886,44.9303936,9,LOCALITA' SAGNALONGA,,CESANA TORINESE,,,,092A404B-BE36-2A08-E054-0003BA0F36E6,33de76c6482ad10b
7.3941789,45.11853,2,VICOLO CIANDELLERA,,ALMESE,,,,E257D61D-F97D-145B-E044-0003BA0F36E6,72c2f34979d78486
7.8300612,45.129256,8,VIA QUARONE,,GASSINO TORINESE,,,,092A404B-A757-2A08-E054-0003BA0F36E6,5f4a92562a6d0b55
7.5848859,44.830231,23,VIA PIAVE,,PANCALIERI,,,,092A404B-9DC0-2A08-E054-0003BA0F36E6,c49a67071edfafb0
7.5687714,45.060495,118,VIA GEROLAMO OLEVANO,,GRUGLIASCO,,,,092A404B-65B7-2A08-E054-0003BA0F36E6,3e24532d25fedf97
7.2225746,44.9466443,38,CORSO ROCCO GALLIANO,,PINASCA,,,,092A404B-619D-2A08-E054-0003BA0F36E6,aad25f976ae80321
7.1177079,44.8079291,64,VIA MAESTRA,,BOBBIO PELLICE,,,,092A404E-0DE4-2A08-E054-0003BA0F36E6,f8f51efb105e0598
7.4349975,44.3887506,11,VIA PALAZZO COMUNALE,,BERNEZZO,,,,092A4044-2FD1-2A08-E054-0003BA0F36E6,ec8bb8de7e1d5c95
8.5333655,44.7535147,5 A,VIA SAN ZENO,,CASSINE,,,,F95D137D-B1F7-2F81-E044-0003BA0F36E6,9a03a36e27c11e3c
8.5538235,44.6394055,5,PIAZZA della CHIESA,,PRASCO,,,,092A4093-CCDF-2A08-E054-0003BA0F36E6,5df5da8e71cfcd09
8.5216196,44.6960626,67,VIA SEGHINI STRAMBI,,STREVI,,,,092A4092-C79F-2A08-E054-0003BA0F36E6,2093093ac9bb7000
7.4395479,44.3854729,27,VIA CUNEO,,BERNEZZO,,,,092A4049-0853-2A08-E054-0003BA0F36E6,807d3f355757464e
8.3957437,45.3484407,3,VIA VERCELLI,,CARESANABLOT,,,,092A4094-86A2-2A08-E054-0003BA0F36E6,8421e8c1766435a7
8.7847671,44.7673366,16,VIA GINOCCHIO RAMIRO,,NOVI LIGURE,,,,092A4083-80F0-2A08-E054-0003BA0F36E6,44b25e81d8ac4151
8.7825692,44.7609813,5,VIA DE AMBROSIS,,NOVI LIGURE,,,,092A4083-7D80-2A08-E054-0003BA0F36E6,19146b259aa5baa3
7.7835342,44.7685773,12,VICOLO FARINI,,SOMMARIVA DEL BOSCO,,,,1E5ED95D-2A1B-291D-E054-0003BA0F36E6,77bfd82834bd60c8
8.8191646,44.7677248,43,STRADA STRADELLA,,NOVI LIGURE,,,,092A4083-A9D6-2A08-E054-0003BA0F36E6,ae15ec12567d9e49
8.7994086,44.7668366,11,VIA dello SCABIOLO,,NOVI LIGURE,,,,092A4083-AC65-2A08-E054-0003BA0F36E6,ed0d06973f844c85
8.8268275,44.7627674,2,STRADA della FUGAZZARA,,NOVI LIGURE,,,,092A4083-7CC2-2A08-E054-0003BA0F36E6,7f564dda9aead4d8
8.7838955,44.7666102,40,VIA GIOVANNI AMENDOLA,,NOVI LIGURE,,,,092A4083-8348-2A08-E054-0003BA0F36E6,33cc833d492eb7a9
7.8225719,45.1280043,5,VIA GENERALE ARMANDO DIAZ,,GASSINO TORINESE,,,,092A404C-E158-2A08-E054-0003BA0F36E6,ce97b5c89753a811
7.5148087,45.1143522,12,VIA TETTI GAY,,SAN GIACOMO,,,,092A404C-D4F1-2A08-E054-0003BA0F36E6,64d1c00f7fe99fac
7.8782029,45.2663792,1,VIA IV NOVEMBRE,,VALLO,,,,092A404C-C952-2A08-E054-0003BA0F36E6,8a031aa77280465f
7.7540004,45.4460105,16,VIA MARTELLONO,,ISSIGLIO,,,,092A404C-C4D9-2A08-E054-0003BA0F36E6,0b77bdb8f8956caf
7.3320165,44.8857089,2,VIA del PINO,,PINEROLO,,,,092A404C-B656-2A08-E054-0003BA0F36E6,79f23cb09da57c47
7.3227752,44.8797267,4,PIAZZA SISTO FRAIRIA,,PINEROLO,,,,092A404C-B174-2A08-E054-0003BA0F36E6,08fcd3b37b47dcd4
7.3768867,44.8923375,6,VIA GIOVANNI BARRA,,PINEROLO,,,,092A404C-AF7B-2A08-E054-0003BA0F36E6,ff7ca819a1bd26a3
7.328965,44.8879148,32,VIA ARCHIBUGIERI DI SAN GIORGIO,,PINEROLO,,,,092A404C-AAC6-2A08-E054-0003BA0F36E6,95efbb2a021a7390
7.3455771,44.8836242,29,VIA ETTORE BIGNONE,,PINEROLO,,,,092A404C-A90E-2A08-E054-0003BA0F36E6,4b21500dfefd6ec3
7.8415705,45.0967555,3,VIA MANDOLERA,,BARDASSANO,,,,092A404B-A329-2A08-E054-0003BA0F36E6,c13b91247ae9cc14
7.8489493,44.9194565,4,VIA CRISTOFORO COLOMBO,,POIRINO,,,,092A404B-96BD-2A08-E054-0003BA0F36E6,e70cabc0f3a1edc8
7.5595426,45.2576149,13,VIA CORIO,,GROSSO,,,,092A404B-8BFF-2A08-E054-0003BA0F36E6,4e42bef53caf9987
7.3216362,45.1138635,52,VIA CONTE VERDE,,CONDOVE,,,,092A404B-8A42-2A08-E054-0003BA0F36E6,ce87e1642c34946a
7.4690819,45.262604,42,VIA CELSO MIGLIETTI,,GERMAGNANO,,,,092A404B-8BCD-2A08-E054-0003BA0F36E6,635ee5f860ffeb07
7.8076071,45.0468284,144,VIA TEPICE,,PINO TORINESE,,,,092A404B-811E-2A08-E054-0003BA0F36E6,da499146088c002e
7.9453074,45.0382677,10,VIA SAN SALVATORE,,MORIONDO TORINESE,,,,092A404B-7872-2A08-E054-0003BA0F36E6,05c013ff3c73b426
7.4483345,44.9826803,6,VIA GAETANO DONIZETTI,,PIOSSASCO,,,,092A404B-7660-2A08-E054-0003BA0F36E6,f68de49288654056
7.3424272,44.9548476,11,VIA COL MARIUN,,CANTALUPA,,,,092A404A-DE62-2A08-E054-0003BA0F36E6,23b2b9bf9a28d10d
7.8339319,45.1244932,1,VIA CARLO LORENZINI DETTO COLLODI,,GASSINO TORINESE,,,,092A404A-DEA8-2A08-E054-0003BA0F36E6,11ee84546cef2271
7.1265612,45.1378975,15,STRADA SUSA,,FORESTO,,,,092A404C-EB0D-2A08-E054-0003BA0F36E6,f3e4d39621dcb548
7.8993851,45.1934025,11,VIA TALENTINO,,CHIVASSO,,,,092A404D-CED8-2A08-E054-0003BA0F36E6,5da3aaa61de3439e
7.9347404,45.1973115,34,VIA CASALE,,CASTELROSSO-TORASSI,,,,092A404D-BBD2-2A08-E054-0003BA0F36E6,c557d7fb8e7cfeef
7.7422969,45.3468091,7,STRADA RIVAROLO,,OZEGNA,,,,092A404D-9170-2A08-E054-0003BA0F36E6,3d6687a94e8ca6fe
7.8025417,45.4938942,4,VIA GIUSEPPE GARIBALDI,,BROSSO,,,,092A404D-8E41-2A08-E054-0003BA0F36E6,51f84588ba3fd5b4
7.1881989,44.9521983,1,BORGATA ENFOUS,,POMARETTO,,,,092A404D-3748-2A08-E054-0003BA0F36E6,6658d21ca382bd44
8.6600166,45.5047192,17,VIA MACALLE',,CAMERI,,,,092A4072-F19F-2A08-E054-0003BA0F36E6,1a48923de0e215a2
7.391938,45.1214331,11,BORGATA I MALATRAIT,,MALATRAIT,,,,092A4082-94E2-2A08-E054-0003BA0F36E6,0d7119e6982a8824
7.4038815,45.1208085,3 /1,VIA BRAIDA,,RIVERA,,,,E257D61D-F793-145B-E044-0003BA0F36E6,5985225544409c3b
7.406504,45.1205886,18 /2,VIA BRAIDA,,RIVERA,,,,E257D61D-F7BB-145B-E044-0003BA0F36E6,ade799a6a093711d
7.7267887,44.8414393,11,VIA ADA NEGRI,,SANTA RITA,,,,092A409A-AA73-2A08-E054-0003BA0F36E6,f67015fb70f0184a
8.4705078,44.675343,3,PIAZZA della BOLLENTE,,ACQUI TERME,,,,092A4099-8143-2A08-E054-0003BA0F36E6,95e4a9119dc99fa6
7.7282568,44.8515966,29,VIA CAVALCAVIA,,CARMAGNOLA,,,,092A4092-2D8A-2A08-E054-0003BA0F36E6,f8a79fd9c644ebd2
7.6704832,44.8326866,17,VIA MAIRA,,MOTTA,,,,092A4092-3366-2A08-E054-0003BA0F36E6,41df4db66b89e710
8.6462705,44.6413272,41,LUNGO ORBA GIUSEPPE MAZZINI,,OVADA,,,,092A4093-67FE-2A08-E054-0003BA0F36E6,7e796ded54d6db49
8.7858593,44.7603123,63,VIA NICOLO' GIRARDENGO,,NOVI LIGURE,,,,092A4083-397E-2A08-E054-0003BA0F36E6,cd041662604b9c49
8.5605626,44.6922265,15,VIA GIUSEPPE GARIBALDI,,ORSARA BORMIDA,,,,092A409E-B3D4-2A08-E054-0003BA0F36E6,fd7510125f58469b
8.4599855,44.5904002,24,VIA SANT'ANNA,,PONZONE,,,,0AE0F23C-84DD-464F-E054-0003BA0F36E6,803049a5d21573ed
8.5243328,44.6989502,61,VIA PIERINO UGO,,STREVI,,,,092A4092-BF66-2A08-E054-0003BA0F36E6,448a368d2808e257
8.0346317,44.6968284,3,PIAZZA SAVONA,,ALBA,,,,092A4082-2BE7-2A08-E054-0003BA0F36E6,7b66df6f11b01bef
7.4060735,44.9924819,8,REGIONE MARITANO,,BRENTATORI,,,,092A404C-A4C7-2A08-E054-0003BA0F36E6,003fdc61555c4379
7.0231125,45.1286951,11,VICOLO SANT'ANTONIO,,GRAVERE,,,,092A404C-874E-2A08-E054-0003BA0F36E6,6fee96c44ed5dc0c
6.9486957,45.1091852,36,FRAZIONE CELS RUINAS,,EXILLES,,,,092A404C-84D8-2A08-E054-0003BA0F36E6,b8f0e376c5698d9e
6.9290623,45.0972049,6,VICOLO COURT DE L'HOTE,,EXILLES,,,,092A404C-806E-2A08-E054-0003BA0F36E6,c0a08f36bb676827
7.1478027,45.1379695,8,VIA FONTAN VALTER,,BUSSOLENO,,,,092A404C-8109-2A08-E054-0003BA0F36E6,ddef6ffed9c9c241
7.9171267,45.0210129,104,VIA RIVA,,BAUSONE,,,,092A404A-FEF1-2A08-E054-0003BA0F36E6,0756e94efb9e16ed
7.6037733,45.3208282,52,VIA FORNACI,,LEVONE,,,,092A404B-6CA1-2A08-E054-0003BA0F36E6,6235cfdb2fbda6d6
7.93002,45.1978479,24,VIA dell' ASSUNTA,,CASTELROSSO-TORASSI,,,,092A404B-59FF-2A08-E054-0003BA0F36E6,9c489e0cda7d0803
6.9855823,45.1177951,1,VIA III REGGIMENTO ALPINI,,CHIOMONTE,,,,092A404B-5A5E-2A08-E054-0003BA0F36E6,783a9f9afc59f2df
7.0607012,45.1247984,5,VIA PIAN BARALE,,MEANA DI SUSA,,,,092A404B-54AF-2A08-E054-0003BA0F36E6,ccc83e9b04b16ddd
7.3020093,44.8256905,2,VIA ASSIETTA,,BRICHERASIO,,,,092A404B-554F-2A08-E054-0003BA0F36E6,3060c344c06e2a6f
7.7688013,45.0430319,31,VIA PIETRA DEL GALLO,,PINO TORINESE,,,,092A404B-500E-2A08-E054-0003BA0F36E6,12b0f0e0e44b97b3
7.586478,44.8331359,1,VICOLO COLOMBARO,,PANCALIERI,,,,092A404B-4C94-2A08-E054-0003BA0F36E6,7af2545694f2ae32
7.8201942,45.0134092,1,VIA MARIO LUDOVICO QUARINO,,CHIERI,,,,092A4056-52C4-2A08-E054-0003BA0F36E6,6e606229395291bf
7.6439778,45.1781835,67,VIA CIRCONVALLAZIONE,,CASELLE TORINESE,,,,092A404E-0001-2A08-E054-0003BA0F36E6,941835af0ecf8c49
8.0337576,44.6977842,3,VIA GIUSEPPE MAZZINI,,ALBA,,,,092A4044-71B7-2A08-E054-0003BA0F36E6,ef79bd5c5203aa52
7.8697681,45.4321152,2,BORGATA SCARIONE,,BORGATA DOSSI,,,,092A407D-B530-2A08-E054-0003BA0F36E6,071b0ca3226b3477
7.5418319,45.0068945,12,VIA VITTORIO ALFIERI,,ORBASSANO,,,,092A4077-DF66-2A08-E054-0003BA0F36E6,d05f66977c091774
8.4162025,45.923531,11,VIA TAMLONE,,ARZO,,,,CE103B03-C722-0E42-E044-0003BA0F36E6,94ada63d289a6f9f
8.0491569,45.3503613,7,VIA MASSIMO D'AZEGLIO,,BORGO D'ALE,,,,092A407D-7160-2A08-E054-0003BA0F36E6,c04699dd686d3bbb
8.4693914,44.6752703,8,VIA GIACOMO BOVE,,ACQUI TERME,,,,092A4091-B3BE-2A08-E054-0003BA0F36E6,3cb263bda7abdd2e
7.8406184,45.1792241,4,VIA MALONETTO,,BRANDIZZO,,,,092A4055-DB05-2A08-E054-0003BA0F36E6,11f5311114ce3d82
8.8049399,44.7656894,4,VIA MONTE SANTO,,NOVI LIGURE,,,,092A4084-C906-2A08-E054-0003BA0F36E6,cc4acc0ca3dbd2dd
8.4341956,45.5726866,4,VIA CESARE BATTISTI,,SIZZANO,,,,092A4055-EF23-2A08-E054-0003BA0F36E6,e10cc8e6a50aa356
7.4352172,44.383586,7,VIA XXV APRILE,,BERNEZZO,,,,092A4044-33CD-2A08-E054-0003BA0F36E6,797415c238b2011d
7.2341885,44.8288972,37,LOCALITA' STALLIAT,,LUSERNA SAN GIOVANNI,,,,092A4078-12EC-2A08-E054-0003BA0F36E6,08009639b513304a
7.2232128,44.9470278,19,VIA UGO PAOLASSO,,PINASCA,,,,092A404C-6976-2A08-E054-0003BA0F36E6,f40cf3a67d65fb89
7.3593609,45.1175445,72,VIA ALCIDE DE GASPERI,,NOVARETTO,,,,092A404C-5C42-2A08-E054-0003BA0F36E6,82c1303fbec3022b
7.0109819,45.1385123,34,FRAZIONE SAN LORENZO,,GIAGLIONE,,,,092A404D-ECCE-2A08-E054-0003BA0F36E6,adb9b35358634aff
7.5379387,45.15785,5,REGIONE SERVIGLIA,,DRUENTO,,,,092A4076-E07A-2A08-E054-0003BA0F36E6,7f2d029d7b45d059
7.3695188,44.8023866,129,VIA PINEROLO,,CAVOUR,,,,092A404C-4B49-2A08-E054-0003BA0F36E6,4962c89a1cf31e18
7.2312714,44.9367061,88,VIA NAZIONALE,,DUBBIONE,,,,092A404C-3C62-2A08-E054-0003BA0F36E6,a29277d5e746d84b
7.5282454,45.0960681,33,VIA RICCARDO ARNO',,VECCHIO,,,,092A404B-2F43-2A08-E054-0003BA0F36E6,8b1649237453d3ce
7.8159064,45.275733,10,STRADA PONTE ROSSO,,FOGLIZZO,,,,092A407A-C294-2A08-E054-0003BA0F36E6,dd9f768ecdb31180
7.3647356,44.9306569,4,STRADA ANTICA di PINEROLO,,FROSSASCO,,,,092A404A-F98D-2A08-E054-0003BA0F36E6,626498f403b1d1dd
7.0093009,45.1405129,25,FRAZIONE CREUSA,,GIAGLIONE,,,,092A404A-F2DA-2A08-E054-0003BA0F36E6,921862fe84192f71
7.610725,44.8702523,19,VIA AMORETTI,,OSASIO,,,,092A404B-16BB-2A08-E054-0003BA0F36E6,bcab58922f5570fa
7.0135596,45.1395024,5,FRAZIONE SAN GIUSEPPE,,GIAGLIONE,,,,092A404B-1459-2A08-E054-0003BA0F36E6,2a147215736248d3
7.0120115,45.1422795,8,FRAZIONE SANT'ANDREA,,GIAGLIONE,,,,092A404B-1148-2A08-E054-0003BA0F36E6,364b08e0bb5c49c1
7.3970533,45.0788456,29,VIA RE UMBERTO I,,AVIGLIANA,,,,092A4078-8A06-2A08-E054-0003BA0F36E6,0ebfc7c6635f4dd5
7.397055,45.0776484,6,VICOLO PAGLIERINO,,AVIGLIANA,,,,092A4078-8B2D-2A08-E054-0003BA0F36E6,2323b433297ed33d
7.3943304,45.0739238,2,VIA PORTIGLIATTI,,AVIGLIANA,,,,092A4078-9361-2A08-E054-0003BA0F36E6,f289b2a18236f985
7.4872113,44.9170734,6,VIA del PALAZZO,,AIRASCA,,,,092A4080-409D-2A08-E054-0003BA0F36E6,b0dfa93503d7f922
7.5696814,45.0093713,7,STRADA RAVETTO,,ORBASSANO,,,,092A4077-E047-2A08-E054-0003BA0F36E6,e4f34698db26bcfe
7.6017377,45.0764901,31,VIA GALILEO GALILEI,,COLLEGNO,,,,092A4079-3744-2A08-E054-0003BA0F36E6,206d6b5468acbe3c
8.7777807,45.4089211,29,VIA SAN GIORGIO,,CERANO,,,,092A405B-F3FF-2A08-E054-0003BA0F36E6,1922bba59aafcd65
7.6857799,45.0019086,33,VIA VITTORIO ALFIERI,,MONCALIERI,,,,092A4085-75E0-2A08-E054-0003BA0F36E6,7daf4a2f871bf5ab
8.7910285,44.7710031,19,VIA EMILIO MOROSINI,,NOVI LIGURE,,,,092A4084-4FB7-2A08-E054-0003BA0F36E6,68e5000e506a6a54
8.7905285,44.7707772,9,VIA EMILIO MOROSINI,,NOVI LIGURE,,,,092A4084-4FD5-2A08-E054-0003BA0F36E6,450136d0e2aafe69
7.2507239,44.8015826,7,VIA MONCUCCO,,LUSERNETTA,,,,092A404B-C3B3-2A08-E054-0003BA0F36E6,97b846d115348d21
8.7910714,44.7692883,20,VIA PAPA GIOVANNI XXIII,,NOVI LIGURE,,,,092A4084-A291-2A08-E054-0003BA0F36E6,47f97d9b3d4e801b
8.3847403,45.6332776,29,VIA LORENZO BIANCHI,,ROMAGNANO SESIA,,,,092A4085-793C-2A08-E054-0003BA0F36E6,6382af247e4495b1
8.7849408,44.7597885,33,VIA DON FRANCESCO CAPURRO,,NOVI LIGURE,,,,092A4085-3C79-2A08-E054-0003BA0F36E6,e126e1a26b8815cb
8.7860115,44.7627252,23,VIA GIUSEPPE MAZZINI,,NOVI LIGURE,,,,092A4084-FF5C-2A08-E054-0003BA0F36E6,539d76c4d24472b1
7.1737158,45.1454848,41,VIA DUCCO,,CHIANOCCO,,,,092A404C-1FA2-2A08-E054-0003BA0F36E6,9e9d8bb0099c2772
7.5955266,45.4206918,3,VIA SAN COSTANZO,,PONT-CANAVESE,,,,092A404C-177D-2A08-E054-0003BA0F36E6,032ae01988cdc1aa
7.8272089,45.1342317,22,STRADA della RESSIA,,GASSINO TORINESE,,,,092A404C-18D6-2A08-E054-0003BA0F36E6,13c9e83b8df61b45
7.0564869,44.9586874,18,BORGATA ROBERSO,,MASSELLO,,,,092A404C-1638-2A08-E054-0003BA0F36E6,0f180afce4cf5f7f
7.3084331,45.1160046,37,VIALE BAUCHIERO,,CONDOVE,,,,092A404C-0EB8-2A08-E054-0003BA0F36E6,fcf6093e30b07617
7.5698482,45.0642037,11,VIA PIETRO CROSETTO,,GRUGLIASCO,,,,092A404C-0A5D-2A08-E054-0003BA0F36E6,f7c98ee75098ae77
7.5731393,45.0677601,2,VIA ROVERETO,,GRUGLIASCO,,,,092A404C-07BF-2A08-E054-0003BA0F36E6,6d9794956eaca62f
7.7714022,45.1962921,49,VIA MICHELANGELO BUONARROTI,,VOLPIANO,,,,092A4078-DCFE-2A08-E054-0003BA0F36E6,cf678fd50a0917b6
7.6736101,44.9607865,67,VIA TETTI AIASSA,,LA LOGGIA,,,,092A4056-0F03-2A08-E054-0003BA0F36E6,ca65671df25b4cbd
7.6673002,44.958305,9,VIA LEONARDO BISTOLFI,,LA LOGGIA,,,,092A4056-0F94-2A08-E054-0003BA0F36E6,015822f9be5cdf81
7.8548922,45.5258315,15,VIA CHIAVERINA,,SAN GERMANO,,,,092A404B-F905-2A08-E054-0003BA0F36E6,fe3b65f691dbe04f
7.814191,45.5845803,8,VIA ROVINE,,CAREMA,,,,092A404B-F2F7-2A08-E054-0003BA0F36E6,c8cf45d4d3ee21cb
7.9043296,45.4957396,10,VIA CARRERA,,CHIAVERANO,,,,092A404B-ECD0-2A08-E054-0003BA0F36E6,5fbe928f57c731a4
7.4682434,44.9897321,2,VIA VOLVERA,,PIOSSASCO,,,,092A404B-0068-2A08-E054-0003BA0F36E6,78f4596ee3b669a9
8.2940939,45.4008576,5,VIA MEDICO GALLO,,CASANOVA ELVO,,,,092A4048-3199-2A08-E054-0003BA0F36E6,b8974e6d2a70f3cb
7.696318,44.8451689,12,VIA VESCOVO PIETRO SOLA,,SAN BERNARDO,,,,092A4098-20E1-2A08-E054-0003BA0F36E6,804a33fa0c1000d9
7.177347,45.1414336,7,FRAZIONE CROTTE,,CHIANOCCO,,,,092A404D-5D36-2A08-E054-0003BA0F36E6,672e7f4481a2749c
8.5045088,45.2217599,36,CORSO ITALIA,,CARESANA,,,,092A4048-2D6B-2A08-E054-0003BA0F36E6,0cc6a10b57c24320
7.7076202,45.1481088,132,STRADA CUORGNE',,MAPPANO,,,,D8C06E56-9144-2213-E044-0003BA0F36E6,5d8ff4ffb4050297
7.9338353,45.2005706,4,VICOLO SAN LUIGI,,CASTELROSSO-TORASSI,,,,092A404A-EF33-2A08-E054-0003BA0F36E6,66fa7537fd79a473
8.0299626,44.6998046,16,CORSO GIACOMO MATTEOTTI,,ALBA,,,,092A4082-4442-2A08-E054-0003BA0F36E6,cda6254e66d80071
7.5659809,45.1403597,12,VIA NOLE,,DRUENTO,,,,CE98E548-86D4-229F-E044-0003BA0F36E6,409350496834abd3
8.4206461,44.6702262,9,VIA BROFFERIO,,TERZO,,,,092A409B-6940-2A08-E054-0003BA0F36E6,6f9937aeba571b4b
7.6091737,45.2351547,7,VIA SAN GIOVANNI,,CIRIE',,,,C16A5F18-73E9-6EC1-E044-0003BA0F36E6,c50921325689f99f
7.5734927,45.2286565,14,LOCALITA' VESCO,,CIRIE',,,,C16A5F18-7425-6EC1-E044-0003BA0F36E6,8a30d01c5d07689c
7.5992804,45.2349843,29,VIA ALBERETTO,,CIRIE',,,,C16A5F18-4937-6EC1-E044-0003BA0F36E6,058c0a84edd38cdd
8.2774188,45.718126,1,VIA SORELLE CALDERINI,,BORGOSESIA,,,,092A408F-4520-2A08-E054-0003BA0F36E6,53979d5a401f63dd
8.4199139,44.5918106,37 B,PIAZZA UMBERTO TERRACINI,,CARTOSIO,,,,092A4097-475C-2A08-E054-0003BA0F36E6,bad1c397e999054d
7.013717,45.1948925,13,STRADA ANTICA SANTA MARIA,,CASE SPARSE,,,,092A404D-452B-2A08-E054-0003BA0F36E6,9a15adcb89065191
7.2727225,44.8373861,26,STRADA COMBA,,BRICHERASIO,,,,092A404D-408A-2A08-E054-0003BA0F36E6,8d7d0fe1630df6b5
6.7577479,45.0452731,2,VIALE BETULLE,,BEAULARD,,,,092A404D-422E-2A08-E054-0003BA0F36E6,1c3df866a153e769
8.1256803,45.3110515,24,VIA TRONZANO,,BIANZE',,,,092A4048-1E52-2A08-E054-0003BA0F36E6,574112e771732f9a
7.561799,45.0674963,40,VIA FABBRICHETTA,,GRUGLIASCO,,,,092A4095-CC0B-2A08-E054-0003BA0F36E6,f966782dc3dd9661
7.5619528,45.0674577,38,VIA FABBRICHETTA,,GRUGLIASCO,,,,092A4095-CC6F-2A08-E054-0003BA0F36E6,7bbda4dbbb8b7ed8
6.8350357,45.0331767,35,VICOLO CARLIN,,OULX,,,,092A404B-D89E-2A08-E054-0003BA0F36E6,b3fb219497431f21
7.3840513,45.3139201,41,VIA ALA,,CERES,,,,092A404B-D623-2A08-E054-0003BA0F36E6,879550edae6f4408
7.6097414,44.9311934,1,VICOLO GIOVANNI RAVERDINO,,PIOBESI TORINESE,,,,092A404B-CB29-2A08-E054-0003BA0F36E6,76ef4d46fae5d849
7.2404687,45.1195189,2,VIA dei GRAVE',,BORGONE SUSA,,,,092A404B-BC47-2A08-E054-0003BA0F36E6,83d1eb6c91ba8a06
7.1485348,45.1377248,20,VIA FONTAN VALTER,,BUSSOLENO,,,,092A404B-BD69-2A08-E054-0003BA0F36E6,ed095498aa175ea9
7.6853576,44.9987576,25,VIA CAMILLO BENSO CAVOUR,,MONCALIERI,,,,092A4089-EFA8-2A08-E054-0003BA0F36E6,c50893123fd92e03
7.1232555,45.141885,64,VIA SAN ROCCO,,FORESTO,,,,092A404D-625E-2A08-E054-0003BA0F36E6,87d1efc6188a079c
7.3107769,44.7684269,16,VIA BIBIANA,,BAGNOLO PIEMONTE,,,,092A4044-8F3F-2A08-E054-0003BA0F36E6,bfddd118f3775782
7.3172078,44.764993,15,VIA CAMPIGLIONE,,BAGNOLO PIEMONTE,,,,092A4044-8F58-2A08-E054-0003BA0F36E6,1bc580d33faeeec8
7.3020959,44.8191607,8,VIA EDOARDO DANEO,,BRICHERASIO,,,,092A4076-35EE-2A08-E054-0003BA0F36E6,b23ea93ca8b18a2d
8.2744399,45.7270494,20,VIA per PIANEZZA,,BORGOSESIA,,,,092A4086-2698-2A08-E054-0003BA0F36E6,8455c1725f5b82a4
7.7357125,45.0186128,3,VIA MAURIZIO BERIA,,MONCALIERI,,,,092A4075-2DBB-2A08-E054-0003BA0F36E6,7c3af0e948fe578b
7.6640386,45.0023495,22,STRADA STUPINIGI,,MONCALIERI,,,,CE98E548-64DD-229F-E044-0003BA0F36E6,7e1e1fe6896d3ba6
8.3859216,45.7573605,3,VIA GOZZANO,,POGNO,,,,D880846C-67F6-4D87-E044-0003BA0F36E6,16d18f2125670e09
8.4879956,45.757778,5,VICOLO MARGHERITA PUSTERLA,,INVORIO,,,,D7CCF4CF-795A-036D-E044-0003BA0F36E6,2aaedd731bd29a54
8.5768572,44.8443727,13,VIA MASSIMO D'AZEGLIO,,CASTELLAZZO BORMIDA,,,,DF1B872B-B405-7325-E044-0003BA0F36E6,53eb33dcb29f20a8
8.552167,44.6395656,19,VIA SAN ROCCO,,PRASCO,,,,092A4095-B2FC-2A08-E054-0003BA0F36E6,1a84a6bb21285364
7.7820513,45.2251483,2,VIA GENERALE VINCENZO ROBAUDI,,SAN BENIGNO CANAVESE,,,,1FF24A6A-9265-5964-E054-0003BA0F36E6,06e917f04898294a
8.4909571,44.6826155,30,STRADA CIRCONVALLAZIONE,,ACQUI TERME,,,,092A4095-93EE-2A08-E054-0003BA0F36E6,59b01225c31cc78d
7.3743243,44.9526642,13,STRADA TAVERNETTE,,TAVERNETTE,,,,092A404D-EDA0-2A08-E054-0003BA0F36E6,4f65f701e766ee50
8.4881365,44.5545689,178,FRAZIONE CIMAFERLE,,PONZONE,,,,0AE0F23C-9063-464F-E054-0003BA0F36E6,0282968429f33b37
7.4529962,44.9888739,2,VIA ALESSANDRO MANZONI,,PIOSSASCO,,,,092A4083-044A-2A08-E054-0003BA0F36E6,97b7e2243878830b
8.7913414,44.7695543,12,VIA GIOSUE' CARDUCCI,,NOVI LIGURE,,,,092A4086-96B4-2A08-E054-0003BA0F36E6,534c22988ea08898
7.6423472,45.1818098,23,VIA FRANCESCO DEGLI OROLOGI,,CASELLE TORINESE,,,,092A404C-D1F4-2A08-E054-0003BA0F36E6,e64bed07619c3a48
7.6078987,45.0627881,19,VIA GUIDO GOZZANO,,GRUGLIASCO,,,,092A404B-A527-2A08-E054-0003BA0F36E6,5caf5f15f13ddf56
6.8239489,45.0366387,11,VIA PAPA GIOVANNI XXIII,,OULX,,,,092A404B-9A6E-2A08-E054-0003BA0F36E6,527844e43521db73
7.781808,45.0416591,3,VIA VALLE BALBIANA,,PINO TORINESE,,,,092A404B-9316-2A08-E054-0003BA0F36E6,314842e45335bb98
7.8426494,45.1227905,57,STRADA FORATELLA,,GASSINO TORINESE,,,,092A404B-9348-2A08-E054-0003BA0F36E6,9254ad5bf67fb7bb
7.1491367,45.1377076,57,VIA FONTAN VALTER,,BUSSOLENO,,,,092A404B-8D3F-2A08-E054-0003BA0F36E6,156ceb7f25d5ca8c
7.7625849,45.0222829,2,STRADA CIATTALINA,,PECETTO TORINESE,,,,092A404B-880D-2A08-E054-0003BA0F36E6,3787e3eadf49deea
7.9296315,45.0309834,7,VIA RIVA,,BAUSONE,,,,092A404B-8169-2A08-E054-0003BA0F36E6,6c33d06af420309b
8.0640401,45.1946232,20,VIA ANTONELLI,,CASCINOTTI,,,,092A4048-3DB5-2A08-E054-0003BA0F36E6,47391ac87ac80c55
7.3398531,44.7442232,4,VIA RONCHI,,BARGE,,,,092A4044-A24A-2A08-E054-0003BA0F36E6,a8f6af3eaf7f1be2
7.5748347,45.0748657,23,VIA FRANCESCO CRISPI,,COLLEGNO,,,,092A404D-479C-2A08-E054-0003BA0F36E6,3d66f38c205444f2
7.9241006,45.0945878,2,VIA ROMA,,CINZANO,,,,092A404B-4271-2A08-E054-0003BA0F36E6,38d09c71a8e0d279
7.881193,45.3570352,9,VIA DAMIANO CHIESA,,MERCENASCO,,,,092A404D-2B09-2A08-E054-0003BA0F36E6,46f9bff8c42c62de
7.7676713,45.0048922,9,STRADA GRIGGI MONTU',,PECETTO TORINESE,,,,092A404A-EB5A-2A08-E054-0003BA0F36E6,611a253164258070
7.7460256,45.0270758,42,VIA BARBARA ALLASON,,PECETTO TORINESE,,,,092A404A-EBAA-2A08-E054-0003BA0F36E6,4265de5a36e52a75
7.5763865,45.0694525,11,VIA SECONDO BECHIS,,GRUGLIASCO,,,,092A404A-E673-2A08-E054-0003BA0F36E6,e03decc04ebb4115
6.7978328,44.9822299,54,FRAZIONE FENILS,,CESANA TORINESE,,,,092A404A-E39E-2A08-E054-0003BA0F36E6,f855f837bc439c44
7.5852921,44.8346651,67,VIA PINEROLO,,PANCALIERI,,,,092A404A-CA1C-2A08-E054-0003BA0F36E6,237dbd9b64760556
7.4638576,45.0247131,57,VIA SANGANO,,BRUINO,,,,092A404A-CAD0-2A08-E054-0003BA0F36E6,922aa27d11fd22f6
8.0269414,44.6812339,103,CORSO ENOTRIA,,ALBA,,,,092A4044-7F9A-2A08-E054-0003BA0F36E6,de9306e79866e8ef
7.8289893,45.4674033,1,VIA CIRCONVALLAZIONE,,FIORANO CANAVESE,,,,D72B695B-2C66-3D2B-E044-0003BA0F36E6,27d10c56a9239e05
7.7217847,44.5031086,18,VIA MOROZZO,,SANT'ALBANO STURA,,,,0A400431-6543-662B-E054-0003BA0F36E6,e4b9a0e535e25e8e
7.3344213,44.9415972,2,STRADA LIGIARD,,CANTALUPA,,,,092A404D-0999-2A08-E054-0003BA0F36E6,e4e1a821d0730ed1
8.2038822,44.9141691,31,VIA MONSIGNOR GIUSEPPE MARELLO,,ASTI,,,,092A407C-5429-2A08-E054-0003BA0F36E6,725d11ad57b5fda3
8.0551333,45.3485926,29,CORSO REPUBBLICA,,BORGO D'ALE,,,,092A407D-72F0-2A08-E054-0003BA0F36E6,7c0a92562b0647a8
8.0519504,45.3517617,4,VIA GALILEO FERRARIS,,BORGO D'ALE,,,,092A407D-735E-2A08-E054-0003BA0F36E6,7a73bedee81d02d1
8.0511905,45.3507788,49,CORSO LIBERTA',,BORGO D'ALE,,,,092A407D-73F4-2A08-E054-0003BA0F36E6,4c904585efb8664a
7.656766,45.1428275,7,VIA STROPPIANA,,BORGARO TORINESE,,,,092A409C-A152-2A08-E054-0003BA0F36E6,2cb4b438b2f1c8b4
8.7980065,44.7637283,71,VIA GIUSEPPE VERDI,,NOVI LIGURE,,,,092A4086-271F-2A08-E054-0003BA0F36E6,a76998ea0e737d81
8.799712,44.7613367,45 A,VIA CASTELDRAGONE,,NOVI LIGURE,,,,092A4086-59F1-2A08-E054-0003BA0F36E6,bfe634f6aeb710d6
8.8214376,44.7672378,67,STRADA di CASSANO,,NOVI LIGURE,,,,092A4086-5A00-2A08-E054-0003BA0F36E6,ae41c7f1e9711e34
8.7690756,44.7582496,6,VIA PIETRO NENNI,,NOVI LIGURE,,,,092A4086-5B04-2A08-E054-0003BA0F36E6,4f3d7027738ca2aa
8.4883555,44.5671196,194,FRAZIONE CIMAFERLE,,PONZONE,,,,0AE0F23C-8FBE-464F-E054-0003BA0F36E6,a4d56ba8c2b2ff38
8.7814089,44.7629326,2,CORSO PIAVE,,NOVI LIGURE,,,,092A4086-19BE-2A08-E054-0003BA0F36E6,4f8efe8fa2fe5792
8.7897479,44.7743406,110,VIA GIUSEPPE MAZZINI,,NOVI LIGURE,,,,092A4086-1A04-2A08-E054-0003BA0F36E6,bc1a4a0957d36072
8.7865666,44.7684427,32,VIA IV NOVEMBRE,,NOVI LIGURE,,,,092A4086-1176-2A08-E054-0003BA0F36E6,27b7f03df9643e1d
6.791678,45.0419602,22,VIA del MULINO,,SAVOULX,,,,092A404D-3B3A-2A08-E054-0003BA0F36E6,bc15037c3ac76741
7.1353901,45.1401934,5,VIA CASCINA DEL GALLO,,BUSSOLENO,,,,092A404B-713D-2A08-E054-0003BA0F36E6,bd16a091e9411f4a
7.6474106,45.3913887,2,VIA PERRUCCHETTI,,CUORGNE',,,,092A404B-6F6C-2A08-E054-0003BA0F36E6,61813bf59c03eec5
7.8388501,45.3361433,1,PIAZZA CONCORDIA,,MONTALENGHE,,,,092A404B-6A17-2A08-E054-0003BA0F36E6,74cd3e5f51456808
7.4796529,45.0214183,41,VIALE dei TIGLI,,BRUINO,,,,092A404B-63EB-2A08-E054-0003BA0F36E6,656e5c23211ad08e
7.6098223,45.0674204,40,VIA RIETI,,GRUGLIASCO,,,,092A404B-53CE-2A08-E054-0003BA0F36E6,ced45380a7245e47
7.8412329,44.9162232,27,VIA GORIZIA,,POIRINO,,,,092A404B-4C0D-2A08-E054-0003BA0F36E6,dba88bd474b1fe29
7.0518858,45.0346663,76,VIA RE UMBERTO I,,FENESTRELLE,,,,092A404B-483E-2A08-E054-0003BA0F36E6,f2557216aab3b77c
7.465567,44.9894711,2,VIA NAZARIO SAURO,,PIOSSASCO,,,,092A404B-39E8-2A08-E054-0003BA0F36E6,dd632461de42777d
8.0709461,45.2805879,22,VIA ANGELO LAVARINO,,LIVORNO FERRARIS,,,,228B6599-9E61-4F9F-E054-0003BA0F36E6,360367e278e7a045
8.1175119,45.3049701,20,VIA LIVORNO FERRARIS,,BIANZE',,,,228B6599-9F97-4F9F-E054-0003BA0F36E6,353043161518080a
7.894058,45.1891338,4,VIALE CAMILLO BENSO CAVOUR,,CHIVASSO,,,,092A404C-E57C-2A08-E054-0003BA0F36E6,8887794c85e350c4
7.7798306,44.9985594,23,STRADA CASSANO,,MADONNA DELLA SCALA,,,,092A404C-E5D6-2A08-E054-0003BA0F36E6,1cb25d2ab0b793f1
7.5787468,45.0747885,36,VIA ARTURO BENDINI,,COLLEGNO,,,,092A404C-D915-2A08-E054-0003BA0F36E6,fef98e1137aa1a65
7.5653167,45.2326362,113,VIA GINO GRAZIOLI,,NOLE,,,,092A404C-C8FD-2A08-E054-0003BA0F36E6,22f84e2914f46d65
7.4692509,45.2626873,43,VIA CELSO MIGLIETTI,,GERMAGNANO,,,,092A404C-C330-2A08-E054-0003BA0F36E6,371f4e974fafed53
7.5726333,45.2442049,23,PIAZZA VITTORIO EMANUELE,,NOLE,,,,092A404C-C240-2A08-E054-0003BA0F36E6,a60a125d0a732548
8.4085996,45.2608519,11,VIA TRENTO,,ASIGLIANO VERCELLESE,,,,092A407C-DACF-2A08-E054-0003BA0F36E6,000de84193d38bbf
7.7164245,45.2049635,80,LOCALITA' TEDESCHI,,LEINI',,,,E099E4AD-15CC-6C4E-E044-0003BA0F36E6,1a47fd70f7176cdf
8.4488865,45.1365565,31,VIA TREVIGI,,CASALE MONFERRATO,,,,F840954A-3B9A-49D1-E044-0003BA0F36E6,4f412b667cb57be4
8.4620808,45.134432,31,VIA CARDINALE GUGLIELMO MASSAIA,,CASALE MONFERRATO,,,,F840954A-3FAF-49D1-E044-0003BA0F36E6,2a5cdaf78732579a
8.4416078,45.1328845,13,VIA BROFFERIO,,CASALE MONFERRATO,,,,F840954A-4068-49D1-E044-0003BA0F36E6,246c18f3244a4246
8.4507012,45.1315063,5,CORSO INDIPENDENZA,,CASALE MONFERRATO,,,,F840954A-431F-49D1-E044-0003BA0F36E6,8f018b4ecb8df1b4
8.5847669,44.8881837,133,VIA PADRE PIO DA PIETRALCINA,,ALESSANDRIA,,,,FBB5CDED-F8E4-3665-E044-0003BA0F36E6,93cf959c1030a22f
8.2844022,45.7194661,12,VIA BERNARDINO LANINO,,BORGOSESIA,,,,092A4086-25C1-2A08-E054-0003BA0F36E6,4e2dfffd6da0f814
7.5423223,45.0065857,2,VIA MARIA MONTESSORI,,ORBASSANO,,,,092A4077-D2FF-2A08-E054-0003BA0F36E6,e3acecede61a7416
7.8900276,45.1611626,1,PIAZZA ROVERE,,CASTAGNETO PO,,,,092A404D-129A-2A08-E054-0003BA0F36E6,29e5cf72a11b8695
7.6093825,45.4205913,3,VIA MOLETTI,,PONT-CANAVESE,,,,092A404B-0F40-2A08-E054-0003BA0F36E6,9b5d89f4bea80ae9
7.484672,45.0077076,2,VIA ENRICO FERMI,,BRUINO,,,,092A404B-0810-2A08-E054-0003BA0F36E6,6cc0827122a904f6
7.8188714,45.3803468,2,VIA BORGHETTO,,VIALFRE',,,,1CB594DA-A4CF-2700-E054-0003BA0F36E6,d60e93529137d2e3
7.3297628,44.883619,2,PIAZZA SOLFERINO,,PINEROLO,,,,092A404C-B26E-2A08-E054-0003BA0F36E6,b23b3b158d91208c
7.3322836,44.8817924,28,VIA MONTEBELLO,,PINEROLO,,,,092A404C-B0B6-2A08-E054-0003BA0F36E6,be9f8a80368e9f13
7.3347435,44.8929144,10,VIA BRUNO BUOZZI,,PINEROLO,,,,092A404C-B11A-2A08-E054-0003BA0F36E6,dd96c610a7006316
7.3354065,44.8847772,24,VIA COSIMO BERTACCHI,,PINEROLO,,,,092A404C-AE04-2A08-E054-0003BA0F36E6,fabf218930f77b35
7.3319131,44.8825477,40,VIA DES GENEYS,,PINEROLO,,,,092A404C-AC56-2A08-E054-0003BA0F36E6,ade27801255feb8c
7.3317753,44.8920519,9,VIA DANTE ALIGHIERI,,PINEROLO,,,,092A404C-A783-2A08-E054-0003BA0F36E6,5516de4449174387
7.2325311,44.9272645,24,LOCALITA' PIAN DEI MAURIN,,INVERSO PINASCA,,,,092A404C-A46D-2A08-E054-0003BA0F36E6,1b541922b5101ef2
8.4180004,45.2655404,20,VIALE GIUSEPPE GARIBALDI,,ASIGLIANO VERCELLESE,,,,092A407C-DDFE-2A08-E054-0003BA0F36E6,7c06c7c8c7fa8136
7.9495128,45.4311843,34,VIA VECCHIO NAVIGLIO,,ALBIANO D'IVREA,,,,092A407D-B495-2A08-E054-0003BA0F36E6,7653791a03f0557f
7.9873546,45.4230784,16,VIA PIANE,,PIANE,,,,092A407D-B774-2A08-E054-0003BA0F36E6,ffc2dc9101ae011b
8.0351001,44.6838238,20,CORSO CORTEMILIA,,ALBA,,,,092A4044-7D6F-2A08-E054-0003BA0F36E6,3f745c28b5777f63
8.6116824,44.6215263,26,STRADA del MEZZANO,,OVADA,,,,092A409C-2218-2A08-E054-0003BA0F36E6,7b4fc5439feea606
8.6393468,44.6217881,44,STRADA NUOVA COSTA,,OVADA,,,,092A409C-2254-2A08-E054-0003BA0F36E6,17f27aecf2baae1c
7.7113399,45.1611943,1,VIA FANTASIA,,LEINI',,,,092A4081-8F89-2A08-E054-0003BA0F36E6,49d054000e907aed
7.3257475,44.7309549,2,VIA SANT'AGOSTINO,,BARGE,,,,092A4044-A33F-2A08-E054-0003BA0F36E6,793464596076af85
8.0171892,44.7147113,38,CORSO CANALE,,MUSSOTTO,,,,092A4082-2435-2A08-E054-0003BA0F36E6,2a20a3c81ce834aa
8.4715693,44.6790975,6,VIA GIORDANO BRUNO,,ACQUI TERME,,,,092A409D-1F6A-2A08-E054-0003BA0F36E6,ed4da9910b63f3be
8.093228,44.906399,,VIA SAN SEBASTIANO,,BALDICHIERI D'ASTI,,,,0965A4CE-C90F-5214-E054-0003BA0F36E6,6e32b954fe2e6400
8.4600846,44.5871732,3,SCALINATA SAN BERNARDO,,PONZONE,,,,0AE0F23C-821C-464F-E054-0003BA0F36E6,38de8d6329125e87
7.5881031,45.2318581,1,VIA CAMPASSO,,CIRIE',,,,C16A5F18-7D26-6EC1-E044-0003BA0F36E6,6a2864ccdcefe0eb
8.2338563,44.7135257,29 BIS,VIA STAZIONE,,SANTO STEFANO BELBO,,,,092A4046-D6B4-2A08-E054-0003BA0F36E6,5c555a83422296fe
7.6559779,45.0044154,3,VIA VINCENZO MONTI,,NICHELINO,,,,092A404C-0ADA-2A08-E054-0003BA0F36E6,1c59e5e25e7bd1df
7.3075943,44.824144,1,STRADALE CAPPELLA MERLI,,BRICHERASIO,,,,092A404D-3176-2A08-E054-0003BA0F36E6,447e9e24e6595707
7.7108303,45.1807671,40,VIALE ITALIA,,LEINI',,,,092A4081-7549-2A08-E054-0003BA0F36E6,a56d9e1d8aeb6e57
8.2054651,44.9003169,238,CORSO VITTORIO ALFIERI,,ASTI,,,,092A4099-4E80-2A08-E054-0003BA0F36E6,0376f48f00d24282
8.2806818,46.115316,33,VIA EZIO VANONI,,DOMODOSSOLA,,,,092A4074-3C80-2A08-E054-0003BA0F36E6,61f9c8c262362a6e
8.2148328,44.9081055,20,VIA DON CARLO GNOCCHI,,ASTI,,,,092A4056-DD93-2A08-E054-0003BA0F36E6,bfefeba56e949544
7.1286247,44.8012714,2,BORGATA PERLA',,BOBBIO PELLICE,,,,092A404C-8424-2A08-E054-0003BA0F36E6,8e753154239cf9e0
7.2322618,44.9397821,6,PIAZZA SAN ROCCO,,DUBBIONE,,,,092A404C-801E-2A08-E054-0003BA0F36E6,a263a2d3053ac863
7.478727,45.0093524,9,VIALE GALILEO FERRARIS,,BRUINO,,,,092A404C-707E-2A08-E054-0003BA0F36E6,f97eb451d4052f6a
7.4725892,44.9916942,47,VIA CAVOUR,,PIOSSASCO,,,,092A404C-6E21-2A08-E054-0003BA0F36E6,515f218d8f2ec8ab
7.3123217,45.1128036,9,VIA PAPA GIOVANNI XXIII,,CONDOVE,,,,092A404C-69F3-2A08-E054-0003BA0F36E6,292c65b856b1abf5
7.9333595,45.1989909,3,VIA SAN ROCCO,,CASTELROSSO-TORASSI,,,,092A404C-5DE1-2A08-E054-0003BA0F36E6,758d27117c2b934f
7.5080592,45.1111046,150,VIA PALMERO GRANGE,,SAN GIACOMO,,,,092A404C-584B-2A08-E054-0003BA0F36E6,d71b014bd9a1aa8c
6.9827223,45.1187798,8,VIA CAMILLO BENSO CAVOUR,,CHIOMONTE,,,,092A404C-4A8B-2A08-E054-0003BA0F36E6,367df0eaf051a5c0
7.024507,45.1866407,32,FRAZIONE SANT'ANNA,,NOVALESA,,,,092A404C-4AD1-2A08-E054-0003BA0F36E6,1a19c9fc9cd209b5
6.7036939,45.078725,40 F,VIA GIUSEPPE MEDAIL,,BARDONECCHIA,,,,092A409F-145A-2A08-E054-0003BA0F36E6,e12cba5f085f6996
6.7013931,45.0785167,1,VIA LUIGI EINAUDI,,BARDONECCHIA,,,,092A409F-1482-2A08-E054-0003BA0F36E6,9fda2b36ecf88cf1
7.3526473,45.0399602,15,VIA CANONICO ROLLA PIO,,GIAVENO,,,,092A407F-EDE6-2A08-E054-0003BA0F36E6,395e758d061a2270
7.3512625,45.0417991,19,PIAZZA MOLINES,,GIAVENO,,,,092A407F-F49E-2A08-E054-0003BA0F36E6,cfa14cba575ed20e
7.352826,45.043397,13,PIAZZA CLARETTA,,GIAVENO,,,,DB405A88-959A-2318-E044-0003BA0F36E6,4da96c07dce91d96
7.3293583,45.0564238,86,VIA MUSINE',,GIAVENO,,,,DB405A88-97F7-2318-E044-0003BA0F36E6,76d0e2effb5f44b0
7.3547268,45.0450943,8,VIA BEATO ROSAZ,,GIAVENO,,,,DB405A88-98B5-2318-E044-0003BA0F36E6,908ededff97b87d7
7.868034,45.4613701,1,VIA CHIUSELLA,,IVREA,,,,092A407F-54F8-2A08-E054-0003BA0F36E6,57e57eaf4c01c9e7
8.8679617,44.9043368,24,VIA FRANCESCHINO DA BAXILIO,,TORTONA,,,,092A409C-30FA-2A08-E054-0003BA0F36E6,4bd7012056eb7fba
7.8475562,44.9195684,84,VIA INDIPENDENZA,,POIRINO,,,,092A404E-179E-2A08-E054-0003BA0F36E6,52d195125ba1c161
7.471454,45.0132746,43,VIA CASCINA NUOVA,,BRUINO,,,,092A404E-0FD8-2A08-E054-0003BA0F36E6,91b05b626869439b
6.9946462,45.1004462,34,VIA ALBERTO MUSY,,FRAIS,,,,092A404E-0B8C-2A08-E054-0003BA0F36E6,f57772d94023e9c2
7.6365559,44.9994591,39,VIA PALLAVICINO,,NICHELINO,,,,092A404E-167C-2A08-E054-0003BA0F36E6,7e1e10a506372054
7.1388421,45.1448586,14,BORGATA GRANGE,,BUSSOLENO,,,,092A404D-FBC4-2A08-E054-0003BA0F36E6,2319b98d45156d80
7.1199312,45.1396293,9,VIA SANT'ALBANO,,FORESTO,,,,092A404D-FAE8-2A08-E054-0003BA0F36E6,15843b8cfa822269
7.5877724,44.8324588,5,VIA PIANCA ROMANA,,PANCALIERI,,,,092A404D-E936-2A08-E054-0003BA0F36E6,f4d95ad23dce9e05
7.6580172,44.6603087,199,VIA TORINO,,SAVIGLIANO,,,,092A4056-74ED-2A08-E054-0003BA0F36E6,5b6d8175f2fe67cd
7.6584589,44.6608451,219,VIA TORINO,,SAVIGLIANO,,,,092A4056-74F7-2A08-E054-0003BA0F36E6,d34b057cd9d41228
8.2470916,45.8752126,8,FRAZIONE SALARO SUPERIORE,,SABBIA,,,,092A4055-F49B-2A08-E054-0003BA0F36E6,12ec73aac1403d51
8.6187578,44.6269472,59,STRADA REBBA,,OVADA,,,,092A4099-91EC-2A08-E054-0003BA0F36E6,b09ae097b4920e92
7.8353981,45.3360677,6,VIA ROMA,,MONTALENGHE,,,,092A4072-48B7-2A08-E054-0003BA0F36E6,7a630d6bb5db3071
7.3626576,44.9818619,29,STRADA OREGLIA,,BORGATA VOLA,,,,092A404A-CAD5-2A08-E054-0003BA0F36E6,5abdac7ce94adf8b
7.8398168,45.1768395,20,VIA ROMA,,BRANDIZZO,,,,092A4055-E4EC-2A08-E054-0003BA0F36E6,091e0b97118966db
7.5765678,45.0594762,87,VIA GENERALE GIUSEPPE PEROTTI,,GRUGLIASCO,,,,092A408A-452F-2A08-E054-0003BA0F36E6,9206902bac374cbf
7.567079,45.059317,110,VIA GEROLAMO OLEVANO,,GRUGLIASCO,,,,092A408A-461A-2A08-E054-0003BA0F36E6,3d711beafb470548
7.9353704,45.4745923,5,VIA BOLLENGO,,BUROLO,,,,092A404C-3F41-2A08-E054-0003BA0F36E6,115ac4f481c45ed1
6.8347677,45.0341619,27,CORSO TORINO,,OULX,,,,092A404C-2BD7-2A08-E054-0003BA0F36E6,c6893f07e6389f12
7.0530367,45.0341278,2,PIAZZA MICHELLONET,,FENESTRELLE,,,,092A404C-1F98-2A08-E054-0003BA0F36E6,7c7ba8acfcd70beb
7.5101224,45.2694434,43,STRADALE LANZO,,BALANGERO,,,,092A404C-1BD3-2A08-E054-0003BA0F36E6,a2535b478c4fdf66
7.6563158,45.3962195,4,VIALE dei MILLE,,PEDAGGIO,,,,092A404C-154D-2A08-E054-0003BA0F36E6,e9f38afa619e8f65
7.7704745,45.0472628,2,VIA ROCCABIANCA,,PINO TORINESE,,,,092A404B-892A-2A08-E054-0003BA0F36E6,2ec2f3d8507af8fe
7.4922926,44.6203675,46,VIA DUCCIO GALIMBERTI TANCREDI,,MANTA,,,,DD750956-791B-1EE3-E044-0003BA0F36E6,c1902c378455dd53
7.7771217,45.4516027,20,VICOLO DOGALI,,PECCO,,,,092A404C-17B9-2A08-E054-0003BA0F36E6,3dc1077b7b369e00
8.6434192,44.6387436,55,PIAZZA XX SETTEMBRE,,OVADA,,,,092A4092-F210-2A08-E054-0003BA0F36E6,f6532c0ef01e3860
8.646975,44.6415274,68,VIA VOLTEGNA,,OVADA,,,,092A4092-F260-2A08-E054-0003BA0F36E6,cfe7a18d4a315056
7.3139076,45.1341926,3,BORGATA CAMPOROSSETTO,,CONDOVE,,,,092A404C-9A1D-2A08-E054-0003BA0F36E6,9c11e0a0025166fe
6.9290739,45.09662,27,VIA ASSIETTA,,EXILLES,,,,092A404C-323F-2A08-E054-0003BA0F36E6,feadcfdc48d3f9de
6.9886784,45.0952417,8,VIA GRAN SEREN,,FRAIS,,,,092A404C-21AF-2A08-E054-0003BA0F36E6,5ae2a4524cce33ed
6.9742795,45.1255076,12,VIA JANNON,,RAMATS,,,,092A404B-6184-2A08-E054-0003BA0F36E6,3c31760b95bc8cc4
7.1596039,44.9802096,5,BORGATA MIGLIASOLA,,MEANO,,,,092A404B-47D0-2A08-E054-0003BA0F36E6,da3f68e6eec6f148
8.6462025,44.6399316,39,VIA CAIROLI,,OVADA,,,,092A4093-2546-2A08-E054-0003BA0F36E6,cfb2e5f91b11dfa2
8.646865,44.6401677,1,VIA CAIROLI,,OVADA,,,,092A4093-2550-2A08-E054-0003BA0F36E6,85d93296bdfafafa
8.4111865,45.9166334,19,VIA RONCHIONI,,CASALE CORTE CERRO,,,,CE98E548-9E94-229F-E044-0003BA0F36E6,9005936da287a82d
7.144792,45.1370249,8,VIA della BOCCIOFILA,,BUSSOLENO,,,,092A404D-DA6D-2A08-E054-0003BA0F36E6,64999e84034acada
7.4834891,44.40755,59,VIA SAN BERNARDO,,SAN ROCCO,,,,092A4044-3945-2A08-E054-0003BA0F36E6,564a037467377caf
7.1161279,45.1191372,35,VIA ROMA,,MATTIE,,,,092A404D-B7EF-2A08-E054-0003BA0F36E6,9805ebb0fa3625fc
7.208888,44.9588666,74,VIA ALESSANDRO FLEMING,,CASTELNUOVO,,,,092A404D-B227-2A08-E054-0003BA0F36E6,1607bdb12bc1719b
7.7010115,44.9938012,17,VIA MARIO PANNUNZIO,,MONCALIERI,,,,092A408B-6405-2A08-E054-0003BA0F36E6,0d86cb63cc99eef4
8.3361165,44.543645,22,VIA VITTORIO EMANUELE,,SPIGNO MONFERRATO,,,,092A4099-C720-2A08-E054-0003BA0F36E6,d7e82f0253f81fa7
8.2639203,45.3249792,16,VIA AVOGADRO DI COLLOBIANO,,SALASCO,,,,092A407C-F820-2A08-E054-0003BA0F36E6,e6b09c60fe83aa33
7.570715,45.0814531,19,VIA CRISTOFORO COLOMBO,,COLLEGNO,,,,092A408D-53B4-2A08-E054-0003BA0F36E6,20ae863ea916a0a4
7.5744911,45.0799024,1,VIA GIUSEPPE GARIBALDI,,COLLEGNO,,,,092A408C-6490-2A08-E054-0003BA0F36E6,8360e73cb4c75053
7.4649552,45.020335,43,VIA ROMA,,BRUINO,,,,092A404D-3D9C-2A08-E054-0003BA0F36E6,23f06b40e697d1fc
7.8773897,45.3199525,100,VIA ROMA,,CANDIA CANAVESE,,,,1CA10FFA-4FB2-1D4B-E054-0003BA0F36E6,fb434acfd1d843b6
7.7728593,45.0440568,37,VIA ROMA,,PINO TORINESE,,,,092A404A-DAAC-2A08-E054-0003BA0F36E6,063b71b5f096be80
8.0502373,45.1501626,21,VIA SANTA FEDE,,CAVAGNOLO,,,,092A404D-177C-2A08-E054-0003BA0F36E6,6bc4a86d97cfcf54
7.0102592,45.1410517,17,FRAZIONE CREUSA,,GIAGLIONE,,,,092A404D-8752-2A08-E054-0003BA0F36E6,ae7a59570df910cd
7.3084684,45.1160322,34,VIALE BAUCHIERO,,CONDOVE,,,,092A404C-0EAE-2A08-E054-0003BA0F36E6,c0e1c32bd70f2105
7.5739721,45.0743688,1,VIA ALFREDO CATALANI,,COLLEGNO,,,,092A404C-076A-2A08-E054-0003BA0F36E6,9fa47eac51962166
7.4471797,45.3011002,67,BORGATA MONASTERO SOTTO,,MONASTERO DI LANZO,,,,092A404D-6326-2A08-E054-0003BA0F36E6,292c5aef50f4d5d2
8.454906,44.6947959,77,STRADA MOIRANO,,MOIRANO,,,,092A4099-9F11-2A08-E054-0003BA0F36E6,c5452f114b41830e
7.5423369,44.9354479,18,VIA PARROCCHIALE,,NONE,,,,092A404A-C878-2A08-E054-0003BA0F36E6,22e6bfc7249b6d7d
7.8883485,45.3291512,5 C,VIA CAVOUR,,CANDIA CANAVESE,,,,1CA10FFA-5133-1D4B-E054-0003BA0F36E6,10c9646c2aad1fb6
7.6602972,45.3758422,15,VIA MASSOLA,,VALPERGA,,,,220E3174-C122-4E63-E054-0003BA0F36E6,71a90c5516d341b6
7.7141181,45.182591,44,VIA MARTIRI DELLA LIBERTA',,LEINI',,,,E01E3B4B-F9B8-2CE9-E044-0003BA0F36E6,04f98b72dd9b133c
8.5859587,44.6342285,24,VIA ROMA,,CREMOLINO,,,,092A409D-B9C5-2A08-E054-0003BA0F36E6,458f63d272ab9942
8.1262436,44.8782548,26,FRAZIONE VAGLIERANO BASSO,,ASTI,,,,092A4056-ECBB-2A08-E054-0003BA0F36E6,f15e6b6205ecefef
8.1764077,44.8681311,249,CORSO ALBA,,ASTI,,,,092A4056-E7E3-2A08-E054-0003BA0F36E6,62d874f6fafbddda
8.2150743,44.9002799,9,CORSO PIETRO CHIESA,,ASTI,,,,092A4056-D203-2A08-E054-0003BA0F36E6,cbcbec390ecf72de
8.2007003,44.8986093,11,PIAZZA SAN MARTINO,,ASTI,,,,092A4056-CAE7-2A08-E054-0003BA0F36E6,a0b426b5863386bf
7.4079418,44.8753062,1,VIA LUIGI TEGAS,,BURIASCO,,,,092A404D-AC91-2A08-E054-0003BA0F36E6,f7d6cb4d9b61e7ee
7.782619,44.9699855,11,VIA CAMPI ROTONDI,,CAMBIANO,,,,092A404D-AE03-2A08-E054-0003BA0F36E6,c9c6ebd82371c0b5
7.3225245,45.1017557,50,VIA BARELLA ROMANO E LUCIANO MARTIRI,,CHIUSA DI SAN MICHELE,,,,092A404D-9945-2A08-E054-0003BA0F36E6,058e3fb5b0c51fe9
7.7793107,44.9723807,3,VIA GIACINTO COMPAJRE,,CAMBIANO,,,,092A404D-9116-2A08-E054-0003BA0F36E6,401f59ffa8b4822d
8.0330079,44.6882263,13,CORSO ENOTRIA,,ALBA,,,,092A4044-7DBA-2A08-E054-0003BA0F36E6,d9d406fec658dfa3
7.4215545,44.920402,12,VIA CAMPANA GROSSO,,PISCINA,,,,092A404C-F288-2A08-E054-0003BA0F36E6,fe3fdd98ad03f5d3
7.1407526,44.9519216,2,BORGATA VROCCHI,,PERRERO,,,,092A404C-F2F1-2A08-E054-0003BA0F36E6,c58b469ccff61c62
8.6497942,44.6720094,4,VIA BASTIONE,,ROCCA GRIMALDA,,,,092A409E-B6CC-2A08-E054-0003BA0F36E6,f8bf8e6f0af31d64
7.5440689,45.2566445,2,VIA TORINO,,CENTRO,,,,092A404B-F342-2A08-E054-0003BA0F36E6,85082c4e599f495d
8.0538989,45.3501576,21,VIA ROMA,,BORGO D'ALE,,,,092A407D-46B8-2A08-E054-0003BA0F36E6,66067db89c0aa375
7.6406161,44.9899114,252,VIA TORINO,,NICHELINO,,,,092A4080-8FC1-2A08-E054-0003BA0F36E6,1e20587d5c82f406
7.6408704,44.9987409,70,VIA STUPINIGI,,NICHELINO,,,,092A404A-F3FC-2A08-E054-0003BA0F36E6,ee23a11fc661193b
7.6107566,44.9330916,12,VIA SAN GIOVANNI BOSCO,,PIOBESI TORINESE,,,,092A404A-ED44-2A08-E054-0003BA0F36E6,4dc1ca3967e01fa7
7.5644623,45.0994502,11,VIA BIELLA,,PIANEZZA,,,,092A4080-D378-2A08-E054-0003BA0F36E6,2b37c63d6eddf589
7.5520969,45.0969626,2,VIA DORA RIPARIA,,PIANEZZA,,,,092A4080-D396-2A08-E054-0003BA0F36E6,d5630333fb87a868
7.6458858,44.9952132,1,VIA CONCORDIA,,NICHELINO,,,,092A404C-C06A-2A08-E054-0003BA0F36E6,6e54774ada3625ae
7.8429841,45.2317275,3,VIA VOLPIANO,,MONTANARO,,,,092A404D-B164-2A08-E054-0003BA0F36E6,bf2261ef54e4dd61
7.7135896,45.1612826,15,VIA BEPPE FENOGLIO,,LEINI',,,,092A4081-8CF5-2A08-E054-0003BA0F36E6,c78b6dba78addcc1
7.5340667,44.9350855,18,VIA BENEDETTO CROCE,,NONE,,,,092A404C-3253-2A08-E054-0003BA0F36E6,6fa4c5eed8f3839c
7.527568,44.9285744,205,VIA ROMA,,NONE,,,,092A404B-7F02-2A08-E054-0003BA0F36E6,136f8a65cd44b73a
8.1911021,44.8961832,18,VIALE DON ALFREDO BIANCO,,ASTI,,,,092A4056-E4C8-2A08-E054-0003BA0F36E6,e384f914b7a0f96b
8.1441064,44.9538408,220,FRAZIONE SERRAVALLE,,ASTI,,,,092A4056-DC1C-2A08-E054-0003BA0F36E6,205fe415481fe0db
8.1828359,44.9420663,158,LOCALITA' VALMANERA,,ASTI,,,,092A4056-D9D3-2A08-E054-0003BA0F36E6,4afa04d0aecb92da
7.2704935,45.1068216,98 A,VIA TORINO,,SANT'ANTONINO DI SUSA,,,,092A4099-5BC3-2A08-E054-0003BA0F36E6,55b97d68262f62f5
8.2047601,44.9000915,264,CORSO VITTORIO ALFIERI,,ASTI,,,,092A4099-4E6C-2A08-E054-0003BA0F36E6,517b64b63629d107
8.2062176,44.9006012,214,CORSO VITTORIO ALFIERI,,ASTI,,,,092A4099-50F1-2A08-E054-0003BA0F36E6,18970cf02e7133b4
8.2148805,44.8986987,10,VIA FERDINANDO GABOTTO,,ASTI,,,,092A4056-CC22-2A08-E054-0003BA0F36E6,4676929cd1b88143
8.1991617,44.8949347,71,VIA SERAFINO GRASSI,,ASTI,,,,092A4056-C9A2-2A08-E054-0003BA0F36E6,66d3d28132cb24de
8.4553197,44.6680742,75,VIA CASSAROGNA,,ACQUI TERME,,,,092A409D-2785-2A08-E054-0003BA0F36E6,8cd6f64b86a5efd4
7.5250108,45.1742513,8,VIA del PINO,,COLVERSO,,,,092A404C-5A99-2A08-E054-0003BA0F36E6,8246d63c9f0d211e
7.3974166,45.3071773,42,FRAZIONE PROCARIA,,CERES,,,,092A404C-1296-2A08-E054-0003BA0F36E6,fd4afefe89ac4d91
7.2503013,45.4324235,8,BORGATA CORTEVECCHIO,,CERESOLE REALE,,,,092A404B-76E7-2A08-E054-0003BA0F36E6,2668c2ef1fa2ca69
8.2801407,45.2509959,23,VIA ANTONIO BIGINELLI,,RONSECCO,,,,092A4055-F6F8-2A08-E054-0003BA0F36E6,48aa38b4d3097568
7.0172913,45.1273744,4,VIA VIGNETTA,,GRAVERE,,,,092A404D-7F5A-2A08-E054-0003BA0F36E6,b66309855a0105aa
7.5267687,45.3152294,25,CASE VILLA',,CORIO,,,,092A404D-9314-2A08-E054-0003BA0F36E6,525c1c5da35c10b2
7.9653314,45.4010349,13,VIA SAN SOLUTORE,,CARAVINO,,,,092A407D-AFBD-2A08-E054-0003BA0F36E6,c20165dc60fe3f82
7.8888434,45.329291,15,VIA CAVOUR,,CANDIA CANAVESE,,,,1CA10FFA-4F08-1D4B-E054-0003BA0F36E6,02c63839e38035ca
7.0352185,45.1485954,4,FRAZIONE SAN GIUSEPPE,,SAN GIUSEPPE,,,,092A404A-E227-2A08-E054-0003BA0F36E6,9e4cefb45d9106a0
7.3657584,44.9185008,22,VIA PINEROLO,,FROSSASCO,,,,092A404A-E303-2A08-E054-0003BA0F36E6,70149be67b0d5dce
7.5905813,44.8289871,53,VIA TRENTO TRIESTE,,PANCALIERI,,,,092A404A-E006-2A08-E054-0003BA0F36E6,382b14cf0e63e7b4
7.5229977,45.2155023,1,VIA TORINO,,FIANO,,,,092A404A-D291-2A08-E054-0003BA0F36E6,9774a7992679e44e
7.5261901,45.2197203,2,VIA MISTI,,FIANO,,,,092A404A-CF8A-2A08-E054-0003BA0F36E6,0b68e1f31a73b311
7.5550018,45.2831669,30,STRADALE TORINO,,BENNE,,,,092A404D-64CA-2A08-E054-0003BA0F36E6,d8c5fd46808914a4
8.7889649,44.7632169,91 A,VIA GIUSEPPE GARIBALDI,,NOVI LIGURE,,,,092A4089-6A88-2A08-E054-0003BA0F36E6,646517a9bf4ca01a
7.4682353,45.0206086,4,VIA SANGANO,,BRUINO,,,,092A404C-FF17-2A08-E054-0003BA0F36E6,3d8035826db12a94
7.51957,45.1100752,13,VIA MONTE GRAPPA,,SAN GIACOMO,,,,092A404E-0C6D-2A08-E054-0003BA0F36E6,2872dc9fea35e15c
7.3934645,44.7678919,22,VIA SALUZZO,,CAVOUR,,,,092A404D-EF76-2A08-E054-0003BA0F36E6,1c8afec29ec49a75
7.8043155,44.9126064,2,VIA BENEDETTO CROCE,,FAVARI-AVATANEI,,,,092A404D-A98A-2A08-E054-0003BA0F36E6,4d81a115e0b3e6c7
7.3317462,44.8868167,24,VIA TRIESTE,,PINEROLO,,,,092A404C-A5A8-2A08-E054-0003BA0F36E6,07424f74fad844b0
7.5611881,45.0707248,279,VIA TOBANELLI,,COLLEGNO,,,,092A4099-4AE3-2A08-E054-0003BA0F36E6,5e92f383c8c23706
7.52904,44.9346067,28,VIA CHISONE,,NONE,,,,092A404B-9DD4-2A08-E054-0003BA0F36E6,609a2e18aa5b2029
8.6416269,44.6436578,19,STRADA CAMPI',,OVADA,,,,092A409A-1004-2A08-E054-0003BA0F36E6,80c52141bb5f2170
7.9917202,45.3595902,3,VIA MAGLIONE,,BORGOMASINO,,,,092A404B-CA84-2A08-E054-0003BA0F36E6,b9f5b0c023ac4f15
7.3892066,45.3150866,6,VIA VALGRANDE,,CERES,,,,092A404B-BAC1-2A08-E054-0003BA0F36E6,48b90f8c9b4b7488
8.5616081,45.958599,2 BIS,VIA MOTTE,,VIGNONE,,,,092A4079-4649-2A08-E054-0003BA0F36E6,145d027eac11f979
7.9062433,45.4838044,38,VIA CHIAVERANO,,CASCINETTE D'IVREA,,,,092A404B-B7CE-2A08-E054-0003BA0F36E6,4669d9d02e8304c9
7.5042634,44.8592616,6,VIA UMBERTO I,,CERCENASCO,,,,092A404B-B43B-2A08-E054-0003BA0F36E6,f1637d03cff42976
7.2541739,44.818447,42,VIA CHARLES BECKWITH,,LUSERNA SAN GIOVANNI,,,,092A404B-AD0B-2A08-E054-0003BA0F36E6,1697945b8c0901d7
7.1221981,44.8085207,12,VIA BARTOLOMEO PEYROT,,BOBBIO PELLICE,,,,092A404B-AD33-2A08-E054-0003BA0F36E6,f05610a6b1d5b220
8.136419,44.8722107,6,FRAZIONE VAGLIERANO,,ASTI,,,,092A4056-E68F-2A08-E054-0003BA0F36E6,c29a3b68f9b32ac5
8.1442991,44.9536172,214,FRAZIONE SERRAVALLE,,ASTI,,,,092A4056-DC2B-2A08-E054-0003BA0F36E6,9e51c03cd627b9ad
7.3705022,44.9634886,8,STRADA VILLAR ALTO,,BORGATA VILLAR ALTO,,,,092A404C-4C5C-2A08-E054-0003BA0F36E6,ac7123f0e2d3ebcd
8.3469608,45.689985,68,FRAZIONE NEGRI,,GRIGNASCO,,,,E7230924-6492-5834-E044-0003BA0F36E6,80d15edd9647a89b
7.9070222,45.4601296,20,VIA DON MOSETTO,,IVREA,,,,092A407F-5CB9-2A08-E054-0003BA0F36E6,7f900b521e0262dd
7.5854901,45.0729233,18,VIA CESARE LOMBROSO,,COLLEGNO,,,,092A4079-3997-2A08-E054-0003BA0F36E6,9cc00480bd11314b
7.0649062,45.1212241,10,VIA GRANGIA,,MEANA DI SUSA,,,,092A404C-8C3A-2A08-E054-0003BA0F36E6,3e3e5fc968b1e589
7.5665018,45.100106,11,VIA BIELLA,,PIANEZZA,,,,092A4080-D639-2A08-E054-0003BA0F36E6,60d1dcdae03278e3
8.3987836,45.7707185,10,VIA DI VITTORIO,,SAN MAURIZIO D'OPAGLIO,,,,D64FE331-1487-1F86-E044-0003BA0F36E6,125ce0fd807747f4
7.3106143,45.1154113,15,VIA CESARE BATTISTI,,CONDOVE,,,,092A404D-2B7C-2A08-E054-0003BA0F36E6,8647ce3d7574ab8f
7.3717229,44.9823426,73,VIA CADUTI PER LA LIBERTA',,CUMIANA,,,,092A404D-508E-2A08-E054-0003BA0F36E6,e3663dc50c157c10
7.3868763,44.9840925,100,VIA CHISOLA,,CUMIANA,,,,092A404D-F9C1-2A08-E054-0003BA0F36E6,d29c153c02d0abcb
7.3691069,44.9712824,115,STRADA COSTA,,COSTA,,,,092A404D-F88B-2A08-E054-0003BA0F36E6,2dc23666213bb9f3
7.3950589,44.9532951,11,STRADA VILLAR BASSO,,BORGATA TETTI SAN MARTINO,,,,092A404D-D85B-2A08-E054-0003BA0F36E6,589abc4aa7777ecd
7.3627134,44.9818087,27,STRADA OREGLIA,,BORGATA VOLA,,,,092A404D-8B76-2A08-E054-0003BA0F36E6,43483a1671a2d4a8
8.7843522,44.766134,32,VIA MONTE SABOTINO,,NOVI LIGURE,,,,092A4083-851E-2A08-E054-0003BA0F36E6,c702df8657ffab7a
7.7092123,45.1694473,60,VIA VITTORIO VALLETTA,,LEINI',,,,092A4081-908D-2A08-E054-0003BA0F36E6,4eda3b48a1e688a5
7.845067,44.6986515,40,VIA GIOVANNI BATTISTA GANDINO,,BRA,,,,E3E911A3-48A9-5372-E044-0003BA0F36E6,aaa22f1d3059ffcb
8.0355476,44.6827113,30,CORSO CORTEMILIA,,ALBA,,,,092A4044-7C66-2A08-E054-0003BA0F36E6,df2825fd0e53da46
8.4455801,44.5623421,44,FRAZIONE PIANLAGO,,PONZONE,,,,0AE0F23C-7DAD-464F-E054-0003BA0F36E6,f72dab93d9fd1edd
8.45964,44.5878688,5,VIA GUGLIELMO MARCONI,,PONZONE,,,,0AE0F23C-7FC9-464F-E054-0003BA0F36E6,62e1f0ebc259fbb2
8.6495812,44.6732781,55,VIA BASTIONE,,ROCCA GRIMALDA,,,,092A409E-C036-2A08-E054-0003BA0F36E6,f0a561ecc007352d
7.6070141,45.2316268,6,VIA TRENTO,,CIRIE',,,,C16A5F18-750B-6EC1-E044-0003BA0F36E6,ab63202b20656ebd
7.6103913,45.2304122,25,VIA TANESCHIE,,CIRIE',,,,C16A5F18-7D35-6EC1-E044-0003BA0F36E6,292e28a9469175d2
7.4043672,44.9600195,3,STRADA CAPPELLA VERDE,,CUMIANA,,,,092A404C-9653-2A08-E054-0003BA0F36E6,8c5df74c890f84f1
7.1619023,45.1428288,7,VIA I MAGGIO,,CHIANOCCO,,,,092A404C-EE3C-2A08-E054-0003BA0F36E6,3d5a04220a77e1f1
8.5867782,44.6820031,38,VIA SANTA MARIA,,MONTALDO BORMIDA,,,,092A409E-C383-2A08-E054-0003BA0F36E6,6973ed68c72fdb57
7.7156098,44.9981792,40,VIA PATERI,,MONCALIERI,,,,CE98E548-5B91-229F-E044-0003BA0F36E6,65af79680bfaa94c
7.6800033,44.9993305,1,VIALE STAZIONE,,MONCALIERI,,,,CE98E548-5E89-229F-E044-0003BA0F36E6,c0d6266a9fb90357
7.7054161,45.0161399,94,STRADA SANTA BRIGIDA,,MONCALIERI,,,,CE98E548-6B4F-229F-E044-0003BA0F36E6,3412f17ed1d91ee7
8.58607,45.9559091,45,VIA MONSIGNOR SCAVINI,,ARIZZANO,,,,092A4077-84F8-2A08-E054-0003BA0F36E6,a83d5300171e44a4
7.9331253,45.2005595,1,VICOLO SAN LUIGI,,CASTELROSSO-TORASSI,,,,092A404B-5A09-2A08-E054-0003BA0F36E6,bd0e2c4b429fb314
7.2229901,44.8022841,2,LOCALITA' PEUI,,LUSERNA SAN GIOVANNI,,,,092A404B-344D-2A08-E054-0003BA0F36E6,fc91e4c1195dc7a8
7.6336399,44.9790303,8,VIA GOITO,,NICHELINO,,,,092A404C-BD4F-2A08-E054-0003BA0F36E6,5ab4be3994bf0824
8.7886606,44.7597189,98,VIA ROMA,,NOVI LIGURE,,,,092A4084-8504-2A08-E054-0003BA0F36E6,4f2ad3025cce63af
8.7692379,44.7617203,10,VIA SANDRO PERTINI,,NOVI LIGURE,,,,092A4083-A819-2A08-E054-0003BA0F36E6,374c19fbfd7e0915
8.8026325,44.7672248,13,VIA GIUSEPPE DI VITTORIO,,NOVI LIGURE,,,,092A4083-AB57-2A08-E054-0003BA0F36E6,9290277b7f7a6331
8.1219628,44.8789691,8,FRAZIONE VAGLIERANO BASSO,,ASTI,,,,092A4056-C57E-2A08-E054-0003BA0F36E6,1a2bac70080b352e
7.7806404,44.9988651,15,STRADA CASSANO,,MADONNA DELLA SCALA,,,,092A404B-973A-2A08-E054-0003BA0F36E6,9df253cefa7a3136
7.51871,45.0893555,28,VIA EMILIO CHIRI,,TALLE,,,,092A404B-956E-2A08-E054-0003BA0F36E6,2d82ecbc7d1c6426
7.7669927,45.0381964,21,VIA BOCCARDI,,PINO TORINESE,,,,092A404B-9451-2A08-E054-0003BA0F36E6,4afc28ed33d797fa
7.5224192,45.2148827,18,VIA SUSA,,FIANO,,,,092A404B-8C4F-2A08-E054-0003BA0F36E6,f28b4d4ca3df7ea0
7.7730761,45.0379424,53,VIA SAN FELICE,,PINO TORINESE,,,,092A404B-812D-2A08-E054-0003BA0F36E6,9a563a00ba9763c1
7.8406686,44.9209706,7,VIA JACOPO ARPINO,,POIRINO,,,,092A404B-7F1B-2A08-E054-0003BA0F36E6,9729b16374540652
7.7973384,45.1160211,20,VIA FRANCESCO PETRARCA,,CASTIGLIONE TORINESE,,,,092A404B-8088-2A08-E054-0003BA0F36E6,30e5a0996c12f0eb
7.7790658,44.9667789,20,VIA SAN ROCCO,,CAMBIANO,,,,092A404B-7877-2A08-E054-0003BA0F36E6,5f6b25df42cded29
7.8766362,45.0623589,3,VIA MAESTRA,,AVUGLIONE,,,,092A404B-7291-2A08-E054-0003BA0F36E6,f691cbaee84ac99d
7.5226098,45.1746523,6,VIA delle ROSE,,COLVERSO,,,,092A404B-6292-2A08-E054-0003BA0F36E6,2cfe509963505ddf
7.5726482,45.0942913,9,VIA della CROCE,,COLLEGNO,,,,092A408D-F3FA-2A08-E054-0003BA0F36E6,a4a92548cb7dfac9
7.356952,45.0357014,114,VIA SAN MICHELE,,GIAVENO,,,,092A407F-ED19-2A08-E054-0003BA0F36E6,89a140485a4fbec4
7.3353813,45.0436436,198,VIA VITTORIO EMANUELE II,,GIAVENO,,,,092A407F-EFD5-2A08-E054-0003BA0F36E6,4e17fd823f73c5f6
7.7504416,45.409566,3,VIA CASCINE TASSO,,BALDISSERO CANAVESE,,,,CE98E548-7F68-229F-E044-0003BA0F36E6,a2f6684164ebc6f4
7.5247911,45.0928369,1,PIAZZA CADUTI,,VECCHIO,,,,092A409D-5985-2A08-E054-0003BA0F36E6,09cc2d8101d01e07
7.4371933,45.0652467,33,VIA della PACE,,BUTTIGLIERA ALTA,,,,092A409D-5A89-2A08-E054-0003BA0F36E6,44950bba3d0307d0
7.434018,45.0706133,37,VIA MARIO GRECO,,BUTTIGLIERA ALTA,,,,092A409D-5B7E-2A08-E054-0003BA0F36E6,ec4c0c52e7cdd0f7
7.3646232,45.0510967,11,VIA SAN LUIGI,,GIAVENO,,,,092A407F-F070-2A08-E054-0003BA0F36E6,0153919778730968
7.3501163,45.0344235,6,VIA RODOLFO REGUZZONI,,GIAVENO,,,,092A407F-F3E5-2A08-E054-0003BA0F36E6,aaee3d36e64523bf
7.3420513,45.0424804,9,VIA OLIVA,,GIAVENO,,,,092A407F-F4BC-2A08-E054-0003BA0F36E6,71403559725aea96
7.3501424,45.0384027,2,VIA ROMAROLO,,GIAVENO,,,,092A407F-F59D-2A08-E054-0003BA0F36E6,65dc081568818dfc
7.2859193,44.8430313,78,STRADA CANAVERO,,CAPPELLA MORERI,,,,CE98E548-89B3-229F-E044-0003BA0F36E6,aa9094b338d7156a
8.8294931,44.7388072,154,STRADA di SERRAVALLE,,NOVI LIGURE,,,,092A409C-0C33-2A08-E054-0003BA0F36E6,ddf5b1139a07f93f
7.6438497,45.0041504,1,VIA LUIGI TENCO,,NICHELINO,,,,092A404C-CE89-2A08-E054-0003BA0F36E6,d3d474b5660cb296
7.6483206,44.9964753,3,VIA FILIPPO JUVARRA,,NICHELINO,,,,092A404C-C11E-2A08-E054-0003BA0F36E6,9ab693c056352efd
7.3970413,45.0776842,3,VICOLO PAGLIERINO,,AVIGLIANA,,,,092A4078-8B23-2A08-E054-0003BA0F36E6,10ac0a35e0ff06eb
7.4062849,45.1004441,15,VIA dei SUPPO,,AVIGLIANA,,,,092A4078-91EF-2A08-E054-0003BA0F36E6,51f03814d0e829cc
7.5949985,45.0781447,28,VIA VITTORIO SASSI,,COLLEGNO,,,,092A4079-3BCC-2A08-E054-0003BA0F36E6,7af933a3c11cab99
7.7659862,45.1358685,50,PIAZZA CAMPIDOGLIO,,SETTIMO TORINESE,,,,CCA38394-0BCE-2601-E044-0003BA0F36E6,4d08af8cac608c36
8.398777,45.7702504,19,VIA DI VITTORIO,,SAN MAURIZIO D'OPAGLIO,,,,D64FE331-14D2-1F86-E044-0003BA0F36E6,b847794cb93c44ba
7.7636906,45.1353936,46,VIA CAVOUR,,SETTIMO TORINESE,,,,CCA38394-0C8C-2601-E044-0003BA0F36E6,8944d812d909899c
7.3542771,45.0389845,21,VIA CLN COMITATO LIBERAZIONE NAZIONALE,,GIAVENO,,,,092A407F-E87D-2A08-E054-0003BA0F36E6,3652f10ab195bad9
8.7671993,44.7600283,36,VIA UMBERTO TERRACINI,,NOVI LIGURE,,,,092A4086-1A13-2A08-E054-0003BA0F36E6,dccde4d91e601e90
8.7754633,44.7782204,39,STRADA SAN BOVO,,NOVI LIGURE,,,,092A4086-1A45-2A08-E054-0003BA0F36E6,4ca28d3dfc1d2710
8.8104039,44.7521996,4,VIA COMMERCIO,,NOVI LIGURE,,,,092A4086-1B1C-2A08-E054-0003BA0F36E6,2b929761d97eb44d
8.7896998,44.7751823,120,VIA GIUSEPPE MAZZINI,,NOVI LIGURE,,,,092A4086-1B62-2A08-E054-0003BA0F36E6,061d741f7604f14d
8.7632847,44.7689235,10,VIA ALTIERO SPINELLI,,NOVI LIGURE,,,,092A4086-1B67-2A08-E054-0003BA0F36E6,70f1619c4b6111a1
7.5229564,45.3405102,11,FRAZIONE PIANO AUDI,,PIANO AUDI,,,,092A404E-146A-2A08-E054-0003BA0F36E6,e062aee9315e458f
8.0536525,45.3511773,10,VIA CARLO EMANUELE DOTTA,,BORGO D'ALE,,,,092A407D-464A-2A08-E054-0003BA0F36E6,e4b7324341381f2e
8.4060543,45.7986182,7,VIA BERSANI,,ORTA SAN GIULIO,,,,092A407A-D810-2A08-E054-0003BA0F36E6,b2cf4986a093e215
8.7843238,44.7671827,64,VIA dei MILLE,,NOVI LIGURE,,,,092A4084-C956-2A08-E054-0003BA0F36E6,84c8ea4d25eb936c
8.7971008,44.7613276,9,VIA DANTE ALIGHIERI,,NOVI LIGURE,,,,092A4084-D577-2A08-E054-0003BA0F36E6,8349c16e12998ac1
8.060908,45.3492974,18,VIA TRONZANESA,,BORGO D'ALE,,,,092A407D-4352-2A08-E054-0003BA0F36E6,1d29781e7c29128a
8.4204314,44.5929026,42,VIA ROMA,,CARTOSIO,,,,092A4097-0B7F-2A08-E054-0003BA0F36E6,158d85b7b3272fbd
7.3902048,45.1171103,91,VIA ROMA,,ALMESE,,,,092A4082-9483-2A08-E054-0003BA0F36E6,c569d48b65daf463
7.5603276,45.0765336,42,VIA CLAVIERE,,COLLEGNO,,,,092A404B-45FA-2A08-E054-0003BA0F36E6,9ce5ba0cb3cfa82d
7.7848328,44.967241,90,VIA CAMPI ROTONDI,,CAMBIANO,,,,092A404B-3867-2A08-E054-0003BA0F36E6,ee990df3e4ca7508
7.9023323,45.4658184,5,STRADA VICINALE CASCINA FORNERIS,,IVREA,,,,092A407F-533B-2A08-E054-0003BA0F36E6,f51e44063e508467
7.8757014,45.4413596,13,CANTONE CARASSO,,IVREA,,,,092A407F-5930-2A08-E054-0003BA0F36E6,bf73f0277c5a108e
8.6491456,44.6409804,4,VIA ANTONIO GRAMSCI,,OVADA,,,,092A409C-1A4D-2A08-E054-0003BA0F36E6,4942eb117eda4508
7.8301498,45.0212532,51,STRADA BALDISSERO,,CHIERI,,,,1B0EB36E-4673-3765-E054-0003BA0F36E6,2070e8eaa56e56ca
7.5575781,44.9887756,73,STRADA PENDINA,,ORBASSANO,,,,092A407A-F188-2A08-E054-0003BA0F36E6,e965a32277a97aac
7.8290149,45.4686368,4,VIA GUGLIELMO MARCONI,,FIORANO CANAVESE,,,,D72B695B-2C2A-3D2B-E044-0003BA0F36E6,93ebb46d03fd4ef6